code,address,department,municipality,website,name,type,tel,shift,email,coords,url,students_grade_pre_1,students_grade_pre_2,students_grade_pre_3,students_grade_1,students_grade_2,students_grade_3,students_grade_4,students_grade_5,students_grade_6,students_grade_7,students_grade_8,students_grade_9,science_1,arts_1,sports_1,social_science_1,language_1,maths_1,science_2,arts_2,sports_2,social_science_2,language_2,maths_2,science_3,arts_3,sports_3,social_science_3,language_3,maths_3,science_4,arts_4,sports_4,social_science_4,language_4,maths_4,science_5,arts_5,sports_5,social_science_5,language_5,maths_5,science_6,arts_6,sports_6,social_science_6,language_6,maths_6,science_7,sports_7,social_science_7,english_7,language_and_literature_7,maths_7,science_8,sports_8,social_science_8,english_8,language_and_literature_8,maths_8,science_9,sports_9,social_science_9,english_9,language_and_literature_9,maths_9
86376,"Dirección:CANTON SANTA RITA ALMENDRO, J%2f SANTIAGO NONUALCO, LA PAZ, SANTIAGO NONUALCO, LA PAZ.",LA PAZ,SANTIAGO NONUALCO,http://,CENTRO ESCOLAR CANTÓN SANTA RITA ALMENDRO,Centro educativo oficial,,Matutino,,"('13.5691667', '-88.9747222')",https://portal.siges.sv/pp/sede?sede=7617,"[6, 6, 8]","[7, 10, 8]","[5, 11, 10]","[6, 4, 9]","[10, 6, 4]","[8, 8, 8]","[9, 9, 6]","[6, 9, 7]","[8, 5, 9]","[7, 8, 5]","[9, 8, 5]","[5, 9, 7]",7.78,7.87,8.69,7.91,7.96,8.04,8.75,8.63,9.25,8.88,,,8.75,8.38,9.00,7.82,7.63,8.63,8.23,8.16,8.90,6.68,6.79,8.10,8.98,8.66,8.78,8.79,8.72,8.93,8.55,8.22,8.45,7.72,8.05,,7.92,8.16,8.50,8.41,7.58,,5.94,6.44,5.38,6.94,6.50,6.32,8.41,8.75,8.15,8.38,8.01,8.16
13064,"Dirección:CANTON CERRO BONITO, SAN MIGUEL., SAN MIGUEL, SAN MIGUEL.",SAN MIGUEL,SAN MIGUEL,http://,"CENTRO ESCOLAR ""CANTON EL CERRO BONITO""",Centro educativo oficial,,Matutino,,"('13.4475', '-88.0905556')",https://portal.siges.sv/pp/sede?sede=2690,"[7, 5, 3]","[8, 9, 6]","[9, 6, 9]","[8, 7, 7]","[9, 8, 7]","[8, 10, 8]","[5, 7, 11]","[1, 6, 7]","[6, 0, 6]",,,,8.30,8.50,8.36,8.44,8.05,8.17,8.43,8.36,8.50,8.14,,,7.57,8.13,8.75,7.00,6.69,6.75,8.46,8.73,8.78,8.04,7.63,7.54,8.50,8.64,8.79,8.43,8.36,8.29,8.41,9.00,9.41,8.58,8.59,,,,,,,,,,,,,,,,,,,
66091,"Dirección:CASERIO CHICUMA, C%2f EL GAVILAN, J%2f NUEVA CONCEPCION, CHALATENANGO, NUEVA CONCEPCION, CHALATENANGO.",CHALATENANGO,NUEVA CONCEPCION,http://,"CENTRO ESCOLAR CASERÍO CHICUMA, CANTÓN EL GAVILÁN",Centro educativo oficial,,Matutino,,"('14.1169444', '-89.3511111')",https://portal.siges.sv/pp/sede?sede=6167,"[1, 4, 7]","[7, 6, 7]","[6, 5, 8]","[11, 11, 14]","[8, 10, 11]","[10, 6, 11]","[12, 12, 5]","[6, 12, 11]","[9, 8, 12]","[10, 9, 7]","[8, 12, 8]","[3, 7, 10]",8.36,8.64,10.00,8.46,8.32,8.36,7.50,8.41,8.96,7.82,6.63,6.73,8.23,8.18,8.54,8.14,8.19,7.63,7.20,7.80,8.50,7.60,6.90,,,,,,,,,,,,,,6.86,7.79,6.93,7.07,6.64,6.86,6.82,7.82,7.11,6.76,6.63,6.95,6.55,7.40,7.00,7.09,6.41,
62049,"Dirección:CASERIO SANTA LUCIA, CANTON SAN JOSE CAPULIN, J%2fMETAPAN, SANTA ANA, METAPAN, SANTA ANA.",SANTA ANA,METAPAN,http://,"CENTRO ESCOLAR ""CASERÍO SANTA LUCÍA, CANTÓN SAN JOSÉ CAPULÍN""",Centro educativo oficial,,Matutino,yaransanchez@gmail.com,"('14.3011111', '-89.4613889')",https://portal.siges.sv/pp/sede?sede=5908,"[3, 4, 0]","[18, 9, 14]","[27, 26, 17]","[35, 44, 30]","[19, 31, 38]","[44, 17, 27]","[21, 42, 16]","[13, 23, 31]","[17, 11, 21]","[22, 24, 15]","[17, 18, 17]","[11, 13, 17]",7.53,7.73,7.54,7.65,7.78,7.50,7.52,7.94,8.56,7.65,7.21,7.24,6.55,5.71,7.39,6.43,5.54,,7.44,8.65,9.66,7.63,7.51,8.07,6.57,9.83,9.85,6.72,5.21,,6.91,7.86,8.60,6.33,6.69,5.24,6.83,7.07,6.67,6.57,6.47,6.33,6.83,8.32,7.71,6.44,6.38,5.94,6.03,6.65,6.54,5.31,5.67,6.24
12321,"Dirección:KILOMETRO 68 1%2f2 CARRETERA PANAMERICANA, CANTON SAN FELIPE, APASTEPEQUE,, APASTEPEQUE, SAN VICENTE.",SAN VICENTE,APASTEPEQUE,http://,"COMPLEJO EDUCATIVO ""CANTÓN SAN FELIPE""",Centro educativo oficial,76098481,Matutino,amilcar.amilcar.mejia@docentes.mined.gob.sv,"('13.6566667', '-88.68')",https://portal.siges.sv/pp/sede?sede=2083,"[26, 24, 19]","[28, 35, 21]","[33, 43, 30]","[45, 73, 27]","[46, 46, 60]","[38, 39, 48]","[41, 35, 39]","[42, 40, 33]","[25, 40, 42]","[39, 49, 37]","[33, 33, 44]","[27, 30, 29]",6.57,7.45,7.27,6.57,6.92,6.63,6.56,6.88,7.50,6.79,6.41,6.03,7.35,8.00,8.34,7.50,7.46,7.45,6.79,6.61,7.68,6.91,6.80,6.17,7.85,7.92,7.76,7.62,7.36,7.04,6.79,7.60,8.00,7.00,7.21,5.81,3.94,7.46,6.75,6.35,8.08,4.73,4.18,6.54,6.41,6.00,8.09,4.13,5.69,7.29,7.21,6.90,9.00,4.78
10027,"Dirección:CANTON LOMA DE LA GLORIA, AHUACHAPAN, AHUACHAPAN.",AHUACHAPAN,AHUACHAPAN,http://,"COMPLEJO EDUCATIVO ""DOCTOR RAFAEL MEZA DELGADO""",Centro educativo oficial,,Matutino,,"('13.9133333', '-89.8755556')",https://portal.siges.sv/pp/sede?sede=32,"[6, 5, 6]","[15, 16, 20]","[11, 15, 15]","[32, 29, 20]","[23, 29, 25]","[25, 23, 29]","[18, 23, 24]","[28, 18, 24]","[30, 29, 20]","[38, 39, 36]","[55, 40, 36]","[39, 55, 44]",8.56,7.86,7.69,8.68,8.30,8.56,7.92,7.20,7.96,7.98,,,8.94,9.36,9.24,8.68,8.48,,8.53,8.34,8.19,8.40,8.59,7.81,7.08,7.69,7.67,7.21,6.42,,7.93,7.81,8.25,7.92,7.67,7.13,8.40,8.32,8.36,8.27,7.54,6.66,8.40,8.00,8.11,8.40,8.02,6.58,8.43,8.67,8.26,8.68,8.20,6.85
10836,"Dirección:CANTON VAINILLAS, EL CARRIZAL, CHALATENANGO, EL CARRIZAL, CHALATENANGO.",CHALATENANGO,EL CARRIZAL,http://,COMPLEJO EDUCATIVO CANTÓN VAINILLAS,Centro educativo oficial,,Matutino,,"('14.1761111', '-88.9213889')",https://portal.siges.sv/pp/sede?sede=841,"[2, 4, 4]","[4, 5, 8]","[10, 7, 7]","[6, 8, 7]","[12, 7, 10]","[7, 13, 8]","[3, 7, 12]","[13, 4, 8]","[10, 16, 4]","[14, 12, 14]","[14, 15, 14]","[12, 16, 13]",8.21,8.86,9.00,8.29,7.92,8.00,6.70,7.10,6.90,6.95,7.00,,7.41,9.04,8.69,8.07,7.72,7.67,7.91,8.15,7.00,8.20,7.74,8.18,6.44,8.25,8.81,6.57,6.75,6.38,7.85,8.59,9.00,7.78,7.58,7.67,6.79,9.00,5.94,6.16,5.54,5.19,6.68,8.43,7.29,6.28,6.88,5.74,7.67,8.00,6.30,5.38,6.58,6.09
10740,"Dirección:5° CALLE ORIENTE BARRIO EL CENTRO, SONSONATE, SONSONATE, SONSONATE.",SONSONATE,SONSONATE,http://,"ESCUELA DE EDUCACION PARVULARIA ""DOLORES DE BRITO""",Centro educativo oficial,,Matutino,,"('13.7222222', '-89.7255556')",https://portal.siges.sv/pp/sede?sede=745,"[158, 181, 139]","[205, 211, 241]","[223, 218, 239]",,,,,,,,,,,,,,,,,,,,,,,,,,,,,,,,,,,,,,,,,,,,,,,,,,,,,,,,,,,,,,,
10370,"Dirección:FINAL AVENIDA ISIDRO MENENDEZ BARRIO EL CALVARIO, METAPAN, SANTA ANA.",SANTA ANA,METAPAN,http://,"CENTRO ESCOLAR ""LUZ GOMEZ""",Centro educativo oficial,2402-2209,Matutino,,"('14.3361111', '-89.4480556')",https://portal.siges.sv/pp/sede?sede=375,,"[55, 58, 40]","[56, 69, 52]","[104, 79, 68]","[75, 105, 67]","[88, 87, 91]","[75, 89, 72]","[93, 79, 62]","[78, 92, 66]","[80, 92, 103]","[84, 82, 72]","[70, 64, 68]",8.28,8.83,8.10,8.26,8.17,8.06,8.07,7.97,8.21,8.04,7.93,7.92,8.23,8.39,8.06,8.18,8.28,7.93,8.60,8.52,8.68,7.91,7.76,7.29,8.04,8.14,7.87,7.97,7.82,7.12,8.40,8.52,7.78,7.82,7.81,6.98,6.24,6.30,6.69,6.32,6.72,6.21,6.63,7.31,6.49,6.53,7.04,5.94,7.35,6.92,7.51,6.79,7.28,7.90
11276,"Dirección:CALLE AL CANTON LOS SITIOS FRENTE A FINCA MATAZANO, J/ TALNIQUE, LA LIBERTAD, TALNIQUE, LA LIBERTAD.",LA LIBERTAD,TALNIQUE,http://,"COMPLEJO EDUCATIVO ""TALNIQUE""",Centro educativo oficial,,Matutino,,"('13.67169', '-89.410218')",https://portal.siges.sv/pp/sede?sede=1201,"[6, 0, 6]","[6, 4, 11]","[21, 17, 33]","[32, 31, 28]","[36, 32, 24]","[23, 30, 32]","[35, 24, 26]","[28, 27, 28]","[19, 23, 29]","[40, 26, 24]","[28, 36, 27]","[34, 20, 39]",5.94,6.68,6.41,6.17,6.09,6.33,7.40,7.17,7.09,7.54,7.35,6.92,6.53,7.28,7.36,6.59,6.33,5.89,7.12,7.52,7.96,6.71,7.22,6.91,6.87,7.27,6.14,6.25,6.61,5.66,7.78,8.41,7.85,7.45,6.00,,7.45,7.21,7.09,7.38,5.58,4.03,7.83,6.55,6.78,6.00,6.04,4.54,6.86,6.13,6.29,7.06,6.09,4.16
86400,"Dirección:CASERIO SAN LUIS CORDOVA, CANTON LOS TRONCONES, J%2f PANCHIMALCO, SAN SALVADOR, PANCHIMALCO, SAN SALVADOR.",SAN SALVADOR,PANCHIMALCO,http://,"CENTRO ESCOLAR CASERÍO SAN LUIS CORDOVA, CANTÓN LOS TRONCONES",Centro educativo oficial,,"Matutino, Vespertino",,"('13.514167', '-89.155')",https://portal.siges.sv/pp/sede?sede=7641,"[2, 4, 1]","[1, 1, 5]","[6, 2, 1]","[9, 6, 4]","[2, 6, 6]","[5, 2, 7]","[2, 0, 2]","[1, 3, 0]","[1, 1, 3]","[2, 1, 1]","[2, 1, 1]","[1, 1, 1]",,,,,,,,,,,,,7.29,7.57,8.00,7.71,7.43,6.71,7.00,8.00,7.50,,,,,,,,,,,,,,,,8.00,9.00,7.00,,,,10.00,9.00,8.00,,,,9.00,8.00,7.00,,,
84012,"Dirección:CANTON CORRALITO, J%2f CORINTO, MORAZAN., CORINTO, MORAZAN.",MORAZAN,CORINTO,http://,CENTRO ESCOLAR CANTÓN CORRALITO,Centro educativo oficial,,Matutino,ana.otilia.galdamez@docentes.mined.edu.sv,"('13.811165', '-87.950611')",https://portal.siges.sv/pp/sede?sede=7181,"[0, 2, 3]","[11, 8, 14]","[11, 22, 11]","[12, 14, 22]","[21, 12, 15]","[22, 19, 13]","[18, 22, 25]","[19, 20, 20]","[22, 18, 22]","[24, 27, 22]","[14, 21, 32]","[14, 14, 19]",7.63,9.00,7.70,8.43,8.73,,8.06,8.30,9.00,8.10,8.27,8.32,8.22,8.53,8.43,8.17,8.05,7.62,7.12,7.44,7.78,6.86,6.72,,6.55,7.50,8.30,7.74,6.32,,6.71,6.84,7.21,6.13,6.96,5.93,6.12,7.18,6.50,6.75,7.28,6.06,6.14,6.62,6.60,6.95,6.70,5.49,6.16,7.15,7.56,7.16,6.80,5.79
11333,"Dirección:KILOMETRO 13½ CARRETERA TRONCAL DEL NORTE, APOPA, SAN SALVADOR, APOPA, SAN SALVADOR.",SAN SALVADOR,APOPA,http://,"CENTRO ESCOLAR ""CORONEL FRANCISCO LINARES""",Centro educativo oficial,2216-6686,Matutino,cefranciscolinares@hotmail.com,"('13.8058333', '-89.1727778')",https://portal.siges.sv/pp/sede?sede=1242,"[31, 40, 20]","[69, 77, 82]","[89, 83, 80]","[131, 133, 113]","[116, 125, 122]","[118, 121, 127]","[120, 125, 124]","[130, 128, 124]","[132, 135, 129]","[136, 134, 133]","[139, 141, 125]","[127, 132, 137]",7.60,7.71,7.43,7.69,7.61,7.76,7.69,7.18,7.63,7.59,7.61,7.44,8.80,9.03,7.99,8.81,8.80,8.83,8.87,8.76,6.80,7.90,7.93,8.85,7.97,7.42,6.89,7.59,7.58,7.88,8.41,8.69,6.62,8.19,8.19,8.12,7.86,7.30,7.80,7.77,7.67,8.15,7.29,8.24,8.34,7.71,7.84,7.74,8.03,8.34,8.38,8.04,8.21,7.71
11390,"Dirección:COLONIA SAN FELIPE POLIGONO ""B"" N° 40, CANTON SAN BARTOLO, ILOPANGO, SAN SALVADOR, ILOPANGO, SAN SALVADOR.",SAN SALVADOR,ILOPANGO,http://,"COMPLEJO EDUCATIVO ""COLONIA SAN FELIPE""",Centro educativo oficial,22962748,Matutino,carlosvargascruz01@gmail.com,"('13.7136111', '-89.0972222')",https://portal.siges.sv/pp/sede?sede=1295,"[0, 0, 0]","[46, 46, 40]","[41, 46, 52]","[45, 44, 61]","[61, 40, 46]","[53, 58, 39]","[58, 48, 60]","[57, 56, 45]","[69, 53, 61]","[46, 64, 53]","[44, 44, 69]","[47, 45, 43]",7.52,7.62,6.10,7.71,8.01,7.99,7.85,8.00,6.69,7.86,7.66,7.59,6.97,6.67,6.63,7.20,7.12,7.07,9.06,8.83,6.33,9.15,9.34,8.60,7.26,7.39,6.27,7.38,7.01,6.92,8.07,8.22,6.12,8.21,8.32,7.57,7.83,5.89,7.94,7.13,6.92,7.12,6.97,5.95,7.46,6.66,6.36,6.67,8.22,6.59,7.68,6.98,7.42,7.04
86127,"Dirección:CASERIO LOS PICACHOS , CANTON MOJONES, J%2fSANTA ROSA DE LIMA, LA UNION., SANTA ROSA DE LIMA, LA UNIÓN.",LA UNIÓN,SANTA ROSA DE LIMA,http://,"CENTRO ESCOLAR CASERÍO LOS PICACHOS, CANTÓN MOJONES",Centro educativo oficial,,Matutino,,"('13.6280556', '-87.9013889')",https://portal.siges.sv/pp/sede?sede=7419,"[3, 7, 2]","[2, 7, 7]","[4, 2, 8]","[3, 4, 2]","[4, 3, 4]","[7, 4, 3]","[4, 7, 4]","[2, 4, 7]","[3, 1, 5]",,,,8.25,8.50,,,,,8.13,8.25,8.00,8.38,,,8.50,9.00,8.59,8.84,,,9.38,9.88,9.75,,,,7.71,7.86,7.29,6.71,,,7.00,6.40,6.80,7.20,,,,,,,,,,,,,,,,,,,,
12455,"Dirección:AV. 14 DE DICIEMBRE, NO.24, TECOLUCA, TECOLUCA, SAN VICENTE.",SAN VICENTE,TECOLUCA,http://,"COMPLEJO EDUCATIVO ""RAFAELA SUAREZ""",Centro educativo oficial,23624209,Matutino,kenia.serrano.marroquin@mined.edu.sv,"('13.54', '-88.7805556')",https://portal.siges.sv/pp/sede?sede=2183,"[9, 23, 10]","[27, 31, 19]","[28, 12, 22]","[46, 61, 21]","[48, 53, 45]","[41, 49, 45]","[52, 49, 51]","[62, 55, 47]","[47, 62, 52]","[59, 65, 67]","[49, 56, 55]","[53, 51, 42]",7.33,7.69,9.02,7.48,7.45,7.32,7.66,7.49,8.02,7.67,7.60,7.37,7.43,7.72,8.35,7.56,7.35,7.25,8.31,8.44,8.32,8.34,8.33,8.07,7.42,7.77,8.88,7.38,7.17,6.84,6.29,5.76,6.58,6.26,6.12,5.26,7.06,8.44,6.36,8.13,5.78,6.49,6.45,8.41,6.29,8.40,5.91,6.51,7.77,9.23,8.02,9.23,7.19,7.34
12711,"Dirección:CANTON MEJICAPA, STA MARIA, SANTA MARIA, USULUTAN.",USULUTAN,SANTA MARIA,http://,"CENTRO ESCOLAR ""CANTON MEJICAPA""",Centro educativo oficial,,Matutino,,"('13.3422222', '-88.4113889')",https://portal.siges.sv/pp/sede?sede=2381,"[21, 12, 15]","[33, 22, 13]","[31, 47, 24]","[57, 50, 53]","[46, 48, 43]","[31, 42, 43]","[46, 34, 43]","[34, 43, 36]","[25, 30, 41]","[32, 29, 30]","[32, 30, 31]","[23, 30, 30]",6.25,6.65,7.81,6.25,6.11,6.02,7.05,7.69,7.84,6.91,7.04,,6.60,7.29,7.52,7.14,7.08,7.31,6.64,7.65,8.03,6.82,6.71,7.14,6.91,7.76,8.31,7.04,7.01,7.09,6.72,7.04,7.50,6.79,6.83,6.89,7.21,7.76,6.96,6.80,7.18,6.57,7.25,7.61,7.21,6.81,7.27,6.71,7.58,7.60,7.63,6.90,7.90,6.87
13624,"Dirección:CASERÍO LOS RAMÍREZ, CANTÓN CERRO EL COYOL, OSICALA, MORAZAN.",MORAZAN,OSICALA,http://http//sitiosescolares.miportal.edu.sv/13624/,INSTITUTO NACIONAL DE OSICALA,Centro educativo oficial,26588081,"Matutino, Vespertino",ino1995@outlook.es,"('13.806667', '-88.149722')",https://portal.siges.sv/pp/sede?sede=3150,,,,,,,,,,,,,,,,,,,,,,,,,,,,,,,,,,,,,,,,,,,,,,,,,,,,,,,,,,,,,,,,,,
12673,"Dirección:CANTON LOS ESPINOS J%2fSAN BUENAVENTURA, SAN BUENA VENTURA, USULUTAN.",USULUTAN,SAN BUENA VENTURA,http://,"CENTRO ESCOLAR ""ANGELA MARIA ARAUJO""",Centro educativo oficial,26314603,Matutino,niltoncampos81@yahoo.com,"('13.5813889', '-88.4002778')",https://portal.siges.sv/pp/sede?sede=2350,"[3, 6, 3]","[22, 5, 5]","[5, 12, 11]","[21, 13, 13]","[8, 20, 14]","[15, 7, 20]","[4, 15, 7]","[10, 4, 14]","[9, 11, 5]","[13, 17, 15]","[8, 13, 17]","[21, 7, 13]",7.55,8.44,8.51,7.29,7.14,7.59,7.71,7.96,7.89,7.64,7.57,7.54,6.60,7.33,7.67,6.65,6.47,6.13,6.14,6.71,7.07,5.71,6.07,5.64,6.66,7.41,7.58,6.80,6.88,5.85,6.00,7.07,6.90,6.17,5.90,5.20,6.88,8.27,7.53,5.75,6.35,5.89,6.28,8.88,8.21,5.21,6.41,5.76,8.69,8.65,8.85,7.00,7.62,7.08
10384,"Dirección:COLONIA SAN JUAN KM.74 CARRETERA HACIA CHALCHUAPA, SAN SEBASTIAN SALITRILLO, SANTA ANA.",SANTA ANA,SAN SEBASTIAN SALITRILLO,http://,"CENTRO ESCOLAR ""CANTON MONTE ALEGRE""",Centro educativo oficial,,Matutino,,"('13.9844444', '-89.6319444')",https://portal.siges.sv/pp/sede?sede=389,"[11, 21, 16]","[30, 23, 42]","[59, 52, 43]","[64, 62, 65]","[38, 54, 57]","[41, 34, 53]","[50, 45, 35]","[49, 50, 43]","[49, 46, 54]","[46, 70, 49]","[36, 35, 55]","[42, 21, 28]",7.05,7.43,7.45,7.19,7.49,7.38,7.33,7.36,7.27,7.32,7.70,7.25,7.24,7.21,7.34,7.34,7.53,7.12,5.98,6.92,7.72,6.00,6.12,5.92,7.83,7.68,7.37,7.67,7.73,6.67,7.20,7.27,7.23,7.14,7.23,6.79,6.05,7.51,5.87,6.77,6.13,5.61,6.30,6.41,6.33,6.14,6.25,6.52,6.07,6.76,6.25,7.04,6.63,7.01
11174,"Dirección:FINAL 1A. AVENIDA SUR COLONIA LAS CRUCITAS, J%2f QUEZALTEPEQUE, LA LIBERTAD, QUEZALTEPEQUE, LA LIBERTAD.",LA LIBERTAD,QUEZALTEPEQUE,http://,"CENTRO ESCOLAR "" JUAN RAMON JIMENEZ """,Centro educativo oficial,,Matutino,juanramonjimenez11174@gmail.com,"('13.8247222', '-89.2725')",https://portal.siges.sv/pp/sede?sede=1124,"[10, 15, 5]","[24, 32, 29]","[38, 29, 39]","[36, 39, 37]","[32, 39, 36]","[45, 35, 42]","[39, 42, 45]","[36, 48, 40]","[31, 39, 37]","[44, 45, 52]","[58, 45, 36]","[46, 53, 37]",7.41,7.67,6.99,7.54,7.07,7.13,6.50,6.70,7.08,6.59,6.72,6.55,7.15,7.18,7.32,7.27,7.01,7.06,6.83,7.83,7.16,6.95,7.20,6.12,6.83,7.04,7.53,6.36,7.56,6.07,6.92,7.38,6.81,7.10,6.91,6.46,6.13,6.96,5.89,6.81,6.05,5.02,6.25,7.54,6.91,6.04,6.46,5.27,6.30,6.78,6.83,6.72,6.04,5.71
80136,"Dirección:CANTON JOYA ANCHA ARRIBA, J%2fSANTA ELENA, USULUTAN, SANTA ELENA, USULUTAN.",USULUTAN,SANTA ELENA,http://,CENTRO ESCOLAR CANTÓN JOYA ANCHA ARRIBA,Centro educativo oficial,,Matutino,,"('13.4247222', '-88.3969444')",https://portal.siges.sv/pp/sede?sede=6979,"[12, 4, 4]","[7, 8, 8]","[6, 10, 17]","[13, 10, 9]","[14, 14, 10]","[15, 14, 13]","[14, 14, 14]","[12, 15, 14]","[11, 12, 15]","[11, 12, 11]","[8, 12, 12]","[10, 8, 11]",7.32,7.53,6.83,7.25,7.04,,6.75,8.80,8.35,6.95,7.05,7.10,6.66,7.07,7.31,6.49,6.21,6.37,6.00,7.86,8.07,6.64,,8.00,6.86,6.57,6.46,6.79,6.61,7.71,6.43,9.21,9.31,6.60,7.93,8.09,7.91,8.13,7.86,7.17,7.95,7.38,7.42,9.00,7.25,6.55,7.41,6.20,8.00,8.50,8.18,6.63,8.54,7.41
80056,"Dirección:CASERIO EL ESCONDIDO, CANTON COYOLITO, J%2fJIQUILISCO, USULUTAN, JIQUILISCO, USULUTAN.",USULUTAN,JIQUILISCO,http://,"CENTRO ESCOLAR CASERÍO EL ESCONDIDO, CANTÓN COYOLITO",Centro educativo oficial,,Matutino,santos.lilian.urias@clases.edu.sv,"('13.3508333', '-88.5802778')",https://portal.siges.sv/pp/sede?sede=6901,"[2, 4, 7]","[4, 2, 3]","[9, 4, 2]","[6, 10, 4]","[8, 4, 9]","[8, 8, 4]","[9, 8, 8]","[6, 9, 8]","[5, 2, 9]","[6, 4, 1]","[7, 7, 6]","[2, 6, 7]",7.88,7.63,8.25,8.13,8.00,,6.50,6.95,7.83,6.67,6.72,,8.63,8.25,8.56,9.00,6.38,,7.00,7.69,8.56,7.57,7.32,6.50,7.13,7.57,7.82,7.00,6.69,6.32,7.57,7.69,7.88,7.13,7.19,6.57,6.00,,5.00,,,,7.00,7.37,5.83,5.50,6.00,,7.08,7.92,5.92,5.83,6.67,
62012,"Dirección:CASERIO SAN ISIDRO, C%2f EL TANQUE, J%2f CHALCHUAPA, SANTA ANA, CHALCHUAPA, SANTA ANA.",SANTA ANA,CHALCHUAPA,http://,"CENTRO ESCOLAR CASERÍO SAN ISIDRO, CANTÓN EL TANQUE",Centro educativo oficial,,Matutino,,"('14.1152778', '-89.7013889')",https://portal.siges.sv/pp/sede?sede=5871,"[3, 3, 0]","[10, 17, 11]","[20, 13, 18]","[25, 26, 21]","[14, 22, 20]","[13, 12, 20]","[16, 11, 15]","[19, 16, 10]","[16, 20, 15]","[9, 15, 18]","[10, 8, 14]","[7, 9, 10]",6.92,9.55,9.53,6.86,6.91,7.04,6.92,6.93,7.41,7.07,6.57,6.79,7.38,7.53,7.38,7.04,7.57,6.88,5.63,5.69,6.47,5.53,5.94,,7.30,8.25,9.13,6.92,6.49,7.95,7.03,7.47,7.90,6.17,6.74,6.76,6.57,7.39,6.71,7.55,6.41,7.44,6.09,8.00,5.03,6.27,5.83,6.43,6.74,9.13,5.88,6.86,6.46,6.42
10810,"Dirección:CASERIO LOS AMATES,CANTON SAN JOSE, J%2f CHALATENANGO, CHALATENANGO, CHALATENANGO, CHALATENANGO.",CHALATENANGO,CHALATENANGO,http://,"CENTRO ESCOLAR "" CASERIO LOS AMATES, CANTON SAN JOSE """,Centro educativo oficial,,Matutino,edwinalvarenga2008@hotmail.com,"('14.0233333', '-88.99')",https://portal.siges.sv/pp/sede?sede=815,"[2, 4, 4]","[9, 6, 7]","[9, 9, 5]","[5, 11, 12]","[10, 5, 11]","[3, 9, 5]","[9, 3, 8]","[5, 8, 6]","[15, 7, 10]","[12, 17, 12]","[12, 10, 17]","[10, 12, 11]",8.66,9.00,8.79,8.75,8.46,8.88,7.96,7.27,7.77,8.04,7.36,,6.30,7.00,6.20,6.70,6.60,,8.75,9.38,7.38,8.51,8.25,,7.17,7.25,7.75,7.00,6.83,,6.55,6.25,5.45,6.85,6.15,6.99,7.67,7.58,8.46,7.38,6.67,6.93,6.97,7.65,8.35,6.55,6.09,6.00,7.14,7.68,9.00,6.87,6.28,7.04
11809,"Dirección:2A. CALLE PONIENTE Y 1A. AVENIDA SUR NO. 2, COJUTEPEQUE, COJUTEPEQUE, CUSCATLAN.",CUSCATLAN,COJUTEPEQUE,http://,"CENTRO ESCOLAR ""EULOGIA RIVAS""",Centro educativo oficial,2372-4507,Matutino,,"('13.721607', '-88.935423')",https://portal.siges.sv/pp/sede?sede=1628,"[0, 0, 0]","[0, 0, 0]","[0, 0, 0]","[94, 123, 158]","[112, 99, 132]","[117, 120, 119]","[109, 113, 130]","[110, 108, 127]","[118, 106, 120]","[128, 133, 122]","[121, 120, 131]","[131, 120, 121]",8.11,8.40,9.47,8.01,8.28,,7.81,8.12,9.45,7.72,7.98,7.54,7.68,8.29,9.48,7.74,7.65,7.48,7.53,8.42,9.03,7.56,7.61,7.26,7.35,7.76,7.35,6.97,8.17,6.12,7.59,7.70,7.17,7.20,7.82,5.85,5.93,7.02,6.37,6.59,5.79,5.76,6.50,7.64,7.00,6.74,6.41,6.28,6.91,7.60,7.04,7.51,7.09,6.52
70047,"Dirección:CANTON EL CEDRO, J%2fPANCHIMALCO, SAN SALVADOR, PANCHIMALCO, SAN SALVADOR.",SAN SALVADOR,PANCHIMALCO,http://,CENTRO ESCOLAR CANTÓN EL CEDRO,Centro educativo oficial,,Matutino,,"('13.6105556', '-89.2127778')",https://portal.siges.sv/pp/sede?sede=6470,"[7, 3, 6]","[12, 21, 10]","[14, 15, 26]","[43, 55, 44]","[63, 40, 57]","[39, 67, 37]","[33, 42, 63]","[53, 29, 43]","[37, 51, 27]","[47, 39, 48]","[37, 46, 36]","[44, 38, 44]",8.66,9.26,8.57,8.63,8.46,8.61,5.82,5.96,5.61,5.86,5.49,,7.19,7.96,8.32,7.26,7.04,7.07,6.82,6.52,8.03,6.58,5.73,6.21,7.49,6.35,7.73,6.51,6.39,6.27,7.20,6.89,7.48,7.12,6.17,6.66,5.93,6.65,6.80,5.09,6.04,7.22,7.20,6.97,7.44,5.95,7.00,7.42,7.13,8.90,7.58,6.21,7.36,7.62
10644,"Dirección:Final Calle Monseñor Oscar Arnulfo Romero Oriente, JUAYUA, SONSONATE.",SONSONATE,JUAYUA,http://,INSTITUTO NACIONAL DE JUAYÚA,Centro educativo oficial,24522073,Matutino,,"('13.841777', '-89.743087')",https://portal.siges.sv/pp/sede?sede=649,,,,,,,,,,,,,,,,,,,,,,,,,,,,,,,,,,,,,,,,,,,,,,,,,,,,,,,,,,,,,,,,,,
10484,"Dirección:FINAL 9a CALLE PONIENTE, PASAJE N° 8, COLONIA QUIÑONEZ,, SANTA ANA, SANTA ANA.",SANTA ANA,SANTA ANA,http://,"COMPLEJO EDUCATIVO ""COLONIA QUIÑONEZ""",Centro educativo oficial,24410610,Matutino,,"('13.9930556', '-89.5666667')",https://portal.siges.sv/pp/sede?sede=489,"[6, 19, 14]","[27, 25, 34]","[34, 38, 35]","[45, 50, 44]","[42, 42, 40]","[41, 43, 47]","[53, 45, 41]","[52, 56, 41]","[38, 53, 48]","[49, 36, 52]","[41, 35, 31]","[42, 35, 35]",6.85,7.29,6.32,6.90,6.86,6.77,7.16,7.41,6.56,7.57,7.24,7.25,7.04,7.12,6.81,6.96,6.95,,5.85,6.68,6.76,6.16,5.50,5.17,7.27,6.91,6.16,6.01,5.00,5.92,7.26,6.83,6.57,6.00,5.83,6.04,6.91,6.16,6.06,6.34,5.22,5.69,6.16,5.83,4.93,6.84,3.75,5.45,7.46,6.37,6.86,7.12,5.97,6.40
12565,"Dirección:CANTON ISLA DE MENDEZ J%2f DE JIQUILISCO, JIQUILISCO, USULUTAN.",USULUTAN,JIQUILISCO,http://,"CENTRO ESCOLAR ""GUSTAVO GUERRERO""",Centro educativo oficial,,Matutino,,"('13.2369444', '-88.665')",https://portal.siges.sv/pp/sede?sede=2264,"[25, 12, 19]","[23, 35, 22]","[23, 37, 39]","[24, 28, 37]","[25, 22, 24]","[23, 24, 19]","[27, 25, 23]","[25, 34, 23]","[20, 25, 29]","[26, 26, 22]","[22, 28, 15]","[23, 24, 20]",6.71,7.15,7.60,6.88,6.60,6.74,5.08,5.39,6.43,5.10,5.19,,5.96,6.33,7.47,6.34,5.66,6.18,5.98,7.19,7.63,6.44,6.92,6.81,5.96,7.07,7.41,6.91,7.23,6.50,5.54,8.98,8.96,6.63,6.74,6.07,5.87,6.69,6.31,7.16,6.52,5.44,5.44,7.91,6.45,6.67,5.83,4.83,7.09,7.75,6.23,6.71,7.57,5.67
60003,"Dirección:CASERIO EL DESVIO, C%2f SANTA CRUZ, J%2f AHUACHAPAN, AHUACHAPAN, AHUACHAPAN, AHUACHAPAN.",AHUACHAPAN,AHUACHAPAN,http://,"CENTRO ESCOLAR CASERÍO EL DESVÍO, CANTÓN SANTA CRUZ",Centro educativo oficial,24013761,Matutino,menicia2012@gmail.com,"('14.0291667', '-89.8980556')",https://portal.siges.sv/pp/sede?sede=5517,"[0, 0, 0]","[15, 14, 11]","[18, 22, 22]","[21, 23, 20]","[29, 18, 23]","[25, 32, 16]","[24, 27, 31]","[21, 26, 25]","[14, 22, 25]","[16, 16, 21]","[22, 15, 12]","[13, 21, 16]",7.21,7.25,7.08,7.15,7.20,,7.21,7.64,7.52,7.19,7.20,7.22,7.31,7.67,7.75,7.46,7.74,7.59,7.51,8.28,7.80,7.66,7.58,7.65,6.83,6.45,6.98,6.86,6.79,6.57,7.13,7.96,7.76,7.00,6.57,7.14,6.83,7.33,7.07,6.76,6.43,6.41,6.71,7.05,6.74,6.54,6.43,7.12,7.75,8.06,7.47,7.50,7.13,7.28
11883,"Dirección:BARRIO EL CALVARIO , SANTA CRUZ ANALQUITO, SANTA CRUZ ANALQUITO, CUSCATLAN.",CUSCATLAN,SANTA CRUZ ANALQUITO,http://,"CENTRO ESCOLAR ""DE SANTA CRUZ ANALQUITO""",Centro educativo oficial,23799053,"Jornada completa, Matutino, Vespertino",centroescolar11883@gmail.com,"('13.6505556', '-88.9591667')",https://portal.siges.sv/pp/sede?sede=1700,,,,"[35, 24, 27]","[28, 35, 23]","[21, 25, 32]","[26, 22, 27]","[23, 23, 23]","[26, 22, 23]","[30, 37, 34]","[29, 30, 28]","[36, 28, 24]",7.67,7.66,6.92,7.34,7.49,7.93,7.14,7.05,7.55,7.21,7.08,7.17,6.83,6.96,4.52,6.91,7.00,6.57,7.69,7.83,4.41,7.40,6.79,,8.46,8.41,8.13,8.57,8.18,,6.67,8.14,5.53,7.99,7.76,5.50,6.32,3.98,7.22,6.04,6.16,4.66,7.45,5.91,7.79,6.80,5.21,,7.57,4.53,8.26,6.50,7.13,5.51
11101,"Dirección:CANTON SAN RAFAEL, J%2f LA LIBERTAD, LA LIBERTAD, LA LIBERTAD, LA LIBERTAD.",LA LIBERTAD,LA LIBERTAD,http://,CENTRO ESCOLAR CANTÓN SAN RAFAEL,Centro educativo oficial,79608442,Matutino,centroescolar.sanrafael@hotmail.com,"('13.5125', '-89.3311111')",https://portal.siges.sv/pp/sede?sede=1064,"[3, 1, 1]","[4, 14, 4]","[26, 22, 19]","[34, 26, 21]","[26, 34, 27]","[28, 25, 35]","[24, 28, 25]","[20, 25, 28]","[22, 32, 23]","[18, 18, 26]","[19, 17, 16]","[26, 20, 12]",6.92,7.62,7.77,6.89,6.93,7.03,6.95,7.20,7.88,7.04,7.02,,7.03,7.40,7.57,7.05,6.66,6.77,7.17,7.59,7.74,7.45,7.49,6.82,7.47,7.73,8.15,7.78,7.83,7.54,5.50,7.20,6.63,3.73,6.36,5.65,6.34,7.37,5.77,6.09,6.36,6.46,6.97,6.80,6.06,6.41,5.75,6.07,6.51,6.25,5.90,5.95,6.54,
80172,"Dirección:CASERIO LOS ZELAYA, CANTON SAN FRANCISCO J%2f SANTA MARIA, USULUTAN, SANTA MARIA, USULUTAN.",USULUTAN,SANTA MARIA,http://,"CENTRO ESCOLAR ""CASERIO LOS ZELAYA, CANTÓN SAN FRANCISCO""",Centro educativo oficial,,Matutino,esperanza.rosario.alfaro@docentes.mined.edu.sv,"('13.3622222', '-88.4086111')",https://portal.siges.sv/pp/sede?sede=7013,"[5, 1, 1]","[0, 5, 4]","[5, 0, 6]","[3, 7, 1]","[3, 3, 7]","[2, 4, 3]","[0, 2, 4]","[0, 0, 2]","[1, 0, 0]",,,,6.50,8.00,5.50,6.00,7.00,,6.13,6.45,6.51,6.01,5.96,6.50,6.96,7.37,7.18,6.92,7.00,7.55,6.85,7.22,7.08,6.78,6.83,7.20,5.50,5.80,5.60,5.15,5.33,,,,,,,,,,,,,,,,,,,,,,,,,
64098,"Dirección:CASERIO HDA. CANADA, CANTON EL PRESIDIO, J%2f SONSONATE, SONSONATE, SONSONATE, SONSONATE.",SONSONATE,SONSONATE,http://,"CENTRO ESCOLAR CASERÍO HACIENDA CANADA, CANTÓN EL PRESIDIO",Centro educativo oficial,,Matutino,,"('13.598056', '-89.731111')",https://portal.siges.sv/pp/sede?sede=6053,"[4, 1, 1]","[5, 6, 3]","[5, 9, 7]","[4, 5, 7]","[4, 3, 5]","[4, 3, 3]","[7, 3, 3]","[5, 6, 4]","[5, 8, 11]","[0, 0, 0]","[0, 0, 0]","[0, 0, 0]",,,,,,,,,,,,,,,,,,,,,,,,,,,,,,,,,,,,,,,,,,,,,,,,,,,,,,
10939,"Dirección:BARRIO EL CALVARIO, SAN FRANCISCO MORAZAN,CHALATENANGO, SAN FRANCISCO MORAZAN, CHALATENANGO.",CHALATENANGO,SAN FRANCISCO MORAZAN,http://,"CENTRO ESCOLAR ""ALFREDO ESPINO""",Centro educativo oficial,23320838,Matutino,,"('14.1822222', '-89.0488889')",https://portal.siges.sv/pp/sede?sede=933,"[13, 11, 10]","[14, 14, 12]","[15, 16, 16]","[21, 14, 15]","[12, 21, 14]","[16, 12, 21]","[13, 16, 12]","[18, 14, 16]","[15, 21, 14]","[15, 11, 20]","[19, 16, 11]","[17, 20, 16]",8.05,8.12,8.47,8.38,8.01,8.11,8.32,9.09,9.18,8.89,7.97,8.35,8.83,9.90,8.60,8.64,8.53,,8.29,9.17,9.54,8.04,8.41,7.83,7.41,8.24,8.48,7.09,7.42,7.00,5.62,6.43,6.74,5.81,5.89,6.03,5.23,7.13,6.17,5.58,5.43,5.31,6.39,6.74,8.00,8.15,5.83,,6.26,7.70,7.58,6.76,6.47,6.39
10343,"Dirección:CANTON EL PANAL, METAPAN, SANTA ANA.",SANTA ANA,METAPAN,http://,"CENTRO ESCOLAR ""HUMBERTO PARADA SANDOVAL""",Centro educativo oficial,,Matutino,,"('14.3652778', '-89.4444444')",https://portal.siges.sv/pp/sede?sede=348,"[0, 2, 1]","[4, 11, 12]","[14, 10, 12]","[9, 19, 11]","[13, 9, 17]","[10, 13, 9]","[15, 9, 11]","[11, 14, 8]","[8, 10, 13]","[14, 13, 12]","[9, 7, 11]","[11, 9, 5]",9.17,7.50,,,,,7.00,7.14,8.00,6.71,6.62,7.57,7.47,7.25,8.80,7.58,7.89,6.17,7.18,8.00,9.18,7.50,7.00,7.46,7.27,6.13,7.44,5.75,7.71,4.20,6.41,7.46,,7.07,6.50,5.13,6.05,8.17,7.50,9.17,6.83,5.29,5.71,8.90,7.22,9.00,6.40,6.62,7.87,7.67,7.40,8.60,7.60,8.44
64061,"Dirección:CASERIO SABANITA, CANTON EL CARRIZAL, NAHUIZALCO, SONSONATE, NAHUIZALCO, SONSONATE.",SONSONATE,NAHUIZALCO,http://,"CENTRO ESCOLAR ""REVERENDO LUIS SERRANO LORENTE""",Centro educativo oficial,,"Matutino, Vespertino",,"('13.7525', '-89.7463889')",https://portal.siges.sv/pp/sede?sede=6016,"[0, 9, 7]","[12, 25, 23]","[27, 30, 31]","[38, 34, 35]","[32, 38, 38]","[25, 32, 36]","[30, 23, 29]","[34, 36, 27]","[23, 30, 34]","[27, 26, 27]","[23, 30, 29]","[25, 16, 24]",6.29,7.04,7.79,6.83,5.88,5.97,7.07,7.28,7.42,7.09,7.24,6.96,7.41,8.03,8.66,7.42,7.37,7.13,6.12,6.70,7.56,6.27,5.57,5.93,7.22,6.29,7.47,7.36,7.02,5.74,6.70,7.17,7.79,6.58,6.46,5.75,6.68,8.13,6.39,5.69,5.37,5.76,5.87,8.07,5.89,5.67,5.79,6.00,7.34,7.07,6.52,5.66,6.43,5.96
64093,"Dirección:CASERÍO LOS RIVERA, CANTÓN EL CAULOTE, J/ SANTO DOMINGO DE GUZMÁN, SONSONATE, CASERÍO LOS RIVERA, SANTO DOMINGO DE GUZMAN, SONSONATE.",SONSONATE,SANTO DOMINGO DE GUZMAN,http://,"CENTRO ESCOLAR CASERÍO LOS RIVERA, CANTÓN EL CAULOTE",Centro educativo oficial,,Matutino,,"('13.7255556', '-89.7858333')",https://portal.siges.sv/pp/sede?sede=6048,"[0, 1, 1]","[13, 3, 5]","[11, 13, 5]","[6, 11, 15]","[10, 7, 11]","[11, 9, 7]","[5, 10, 8]","[12, 3, 10]","[8, 12, 4]","[7, 7, 12]","[13, 7, 7]","[8, 13, 7]",7.83,9.00,8.96,8.23,7.76,7.30,7.78,8.54,7.68,7.04,,,8.57,8.93,8.43,8.57,8.71,8.86,7.45,7.39,7.67,7.61,,,7.65,7.75,7.60,8.07,8.10,7.25,8.88,8.75,9.13,9.38,8.25,,6.88,8.59,7.25,6.54,6.63,6.29,6.26,6.25,6.87,5.88,5.88,5.94,7.50,7.92,6.86,6.21,8.43,6.64
11061,"Dirección:KILÓMETRO 2, DESVÍO A CHILTIUPÁN, CANTÓN JULUPE, CHILTIUPAN, LA LIBERTAD.",LA LIBERTAD,CHILTIUPAN,http://,"COMPLEJO EDUCATIVO ""JOSÉ SIMEÓN CAÑAS""",Centro educativo oficial,,Matutino,coed11061@gmail.com,"('13.5147222', '-89.4583333')",https://portal.siges.sv/pp/sede?sede=1036,"[6, 8, 6]","[18, 10, 11]","[20, 21, 16]","[20, 25, 22]","[17, 23, 23]","[17, 20, 26]","[25, 20, 20]","[13, 28, 20]","[18, 13, 29]","[15, 21, 13]","[16, 16, 22]","[18, 16, 16]",6.83,7.29,7.75,6.78,6.87,6.88,8.05,6.96,7.11,8.15,,,7.68,7.41,7.46,7.63,7.65,7.64,7.30,7.08,7.42,6.90,7.20,,6.65,7.84,5.83,6.67,6.62,,6.86,6.50,6.78,6.22,6.79,5.79,5.46,6.81,5.16,7.46,6.67,6.24,6.40,7.68,6.00,7.01,6.80,6.37,6.05,7.31,6.29,6.75,5.39,4.82
60263,"Dirección:Caserío Los Pinos, Cantón San Rafael, TACUBA, AHUACHAPAN.",AHUACHAPAN,TACUBA,http://,"CENTRO ESCOLAR CASERÍO LOS PINOS, CANTÓN SAN RAFAEL",Centro educativo oficial,,"Matutino, Vespertino",,"('13.9136111', '-89.8994444')",https://portal.siges.sv/pp/sede?sede=5777,"[0, 3, 0]","[13, 9, 13]","[7, 11, 11]","[18, 9, 13]","[13, 18, 9]","[15, 12, 19]","[12, 11, 12]","[7, 13, 9]","[6, 7, 13]",,,,5.96,6.23,6.20,6.16,5.85,5.96,6.50,6.55,6.45,6.28,6.38,,6.21,6.50,6.37,6.05,6.00,,6.82,6.91,7.13,6.64,6.73,,6.95,7.38,7.45,6.50,6.55,,7.00,7.23,7.30,6.96,6.96,,,,,,,,,,,,,,,,,,,
13545,"Dirección:BARRIO GUADALUPE CONTIGUO A ALCALDIA, SAN ALEJO, LA UNIÓN.",LA UNIÓN,SAN ALEJO,http://,"CENTRO ESCOLAR "" REPUBLICA DE ARGENTINA """,Centro educativo oficial,2649 0450,Matutino,,"('13.4316667', '-87.9616667')",https://portal.siges.sv/pp/sede?sede=3093,"[17, 13, 12]","[37, 40, 22]","[41, 49, 39]","[51, 51, 55]","[45, 48, 48]","[56, 45, 43]","[49, 51, 43]","[47, 49, 46]","[29, 52, 49]","[51, 44, 57]","[39, 50, 37]","[41, 36, 46]",7.57,7.64,8.64,7.38,7.70,7.96,7.16,8.00,8.38,7.32,6.72,6.78,7.82,8.98,9.06,7.71,7.99,7.34,7.18,8.54,8.82,7.63,7.51,6.60,7.38,8.47,9.10,7.32,7.58,6.47,7.20,8.42,8.80,7.09,7.38,6.32,7.11,8.72,7.52,6.69,6.88,6.41,6.88,8.79,7.79,7.03,7.21,6.40,6.84,8.68,7.52,6.29,6.46,5.63
13556,"Dirección:AVENIDA FERNANDO BENITEZ, BARRIO LAS DELICIAS, SANTA ROSA DE LIMA, LA UNION, SANTA ROSA DE LIMA, LA UNIÓN.",LA UNIÓN,SANTA ROSA DE LIMA,http://,"CENTRO ESCOLAR ""BARRIO LAS DELICIAS """,Centro educativo oficial,2664-2114,"Matutino, Vespertino",centroescolarbarriolasdelicias@hotmail.com,"('13.6286111', '-87.8894444')",https://portal.siges.sv/pp/sede?sede=3102,"[1, 0, 3]","[7, 12, 4]","[21, 17, 22]","[23, 31, 23]","[41, 24, 31]","[38, 38, 27]","[35, 37, 41]","[49, 34, 36]","[17, 51, 32]","[32, 17, 46]","[41, 32, 19]","[35, 39, 28]",8.13,7.84,8.53,8.24,7.46,7.41,6.50,7.04,7.05,6.47,6.38,6.26,8.09,8.24,8.96,7.95,8.37,8.00,7.83,8.06,8.13,7.75,7.78,7.50,7.26,7.49,7.91,6.79,7.04,7.31,7.33,7.92,7.88,7.42,6.97,7.42,6.36,6.52,7.20,6.31,7.01,6.45,6.66,7.11,6.71,6.00,6.18,,7.29,7.43,7.46,7.20,7.16,6.66
68018,"Dirección:CASERÍO EL PITAL, CANTÓN ENTRE RIOS, MUNICIPIO DE COLÓN, LA LIBERTAD, COLON, LA LIBERTAD.",LA LIBERTAD,COLON,http://,"CENTRO ESCOLAR CASERÍO EL PITAL, CANTÓN ENTRE RÍOS",Centro educativo oficial,,"Matutino, Vespertino",,"('13.7452778', '-89.3858333')",https://portal.siges.sv/pp/sede?sede=6247,"[21, 22, 16]","[20, 28, 26]","[35, 21, 35]","[21, 39, 29]","[23, 19, 37]","[22, 23, 24]","[18, 25, 24]","[19, 18, 25]","[21, 19, 20]","[25, 21, 23]","[25, 25, 21]","[22, 22, 29]",7.88,8.06,8.32,7.81,7.32,7.39,7.78,8.78,8.27,8.63,8.45,7.83,7.83,7.65,7.15,7.78,8.34,7.30,7.82,7.66,8.38,8.45,7.77,7.21,7.41,7.78,7.38,7.20,7.70,7.01,7.49,8.54,8.99,7.89,7.75,7.14,7.71,7.11,7.05,7.74,6.74,6.76,7.68,8.53,8.19,7.75,7.84,7.79,8.24,7.34,7.56,7.41,7.64,7.57
11031,"Dirección:2A. CALLE O. 2-1. LOURDES, J%2f COLON, LA LIBERTAD, COLON, LA LIBERTAD.",LA LIBERTAD,COLON,http://,"CENTRO ESCOLAR ""GUSTAVO VIDES VALDES""",Centro educativo oficial,,Matutino,,"('13.7244444', '-89.3672222')",https://portal.siges.sv/pp/sede?sede=1014,,,,"[72, 94, 99]","[90, 92, 94]","[86, 95, 106]","[98, 101, 108]","[121, 112, 114]","[121, 132, 117]","[127, 142, 147]","[142, 145, 154]","[128, 139, 149]",7.19,7.08,5.93,7.15,7.15,,7.04,6.77,5.46,6.96,7.03,6.78,6.73,6.93,5.77,6.72,6.60,6.54,6.95,7.03,5.75,6.98,7.01,6.94,6.00,7.13,5.69,5.99,6.14,5.63,6.83,7.00,5.73,6.82,6.89,6.42,5.47,6.59,5.71,4.53,4.76,5.05,5.31,6.33,6.08,4.61,4.09,3.85,5.59,6.47,6.53,4.50,5.09,3.63
10178,"Dirección:CANTON EL JOBO, TURIN, AHUACHAPAN.",AHUACHAPAN,TURIN,http://,"CENTRO ESCOLAR ""CANTÓN EL JOBO""",Centro educativo oficial,,"Matutino, Vespertino",,"('13.9611111', '-89.7766667')",https://portal.siges.sv/pp/sede?sede=183,"[0, 2, 0]","[15, 16, 17]","[32, 29, 22]","[31, 42, 42]","[33, 26, 28]","[40, 35, 20]","[35, 42, 41]","[31, 29, 41]","[29, 29, 27]","[33, 31, 26]","[22, 15, 21]","[25, 22, 16]",4.88,5.28,5.42,4.99,4.77,4.76,6.26,6.73,7.20,6.37,6.14,6.36,6.62,6.71,7.17,6.03,5.86,6.09,6.10,6.54,6.63,6.23,5.90,5.96,6.18,6.67,6.56,6.08,6.10,6.45,7.69,7.16,6.45,6.86,6.36,6.55,5.92,6.83,5.64,5.69,6.00,6.28,6.14,6.54,6.17,5.50,6.59,6.41,7.91,7.28,6.25,5.79,6.72,7.03
12749,"Dirección:BARRIO EL CALVARIO USULUTAN, USULUTAN, USULUTAN.",USULUTAN,USULUTAN,http://,"ESCUELA DE EDUCACIÓN PARVULARIA ""BARRIO EL CALVARIO""",Centro educativo oficial,26622316,Matutino,,"('13.3416667', '-88.435')",https://portal.siges.sv/pp/sede?sede=2412,"[93, 71, 109]","[71, 109, 80]","[110, 103, 107]",,,,,,,,,,,,,,,,,,,,,,,,,,,,,,,,,,,,,,,,,,,,,,,,,,,,,,,,,,,,,,,
11283,"Dirección:COLONIA VISTA HERMOSA, J/TEOTEPEQUE, LA LIBERTAD, TEOTEPEQUE, LA LIBERTAD.",LA LIBERTAD,TEOTEPEQUE,http://,"INSTITUTO NACIONAL "" DE TEOTEPEQUE """,Centro educativo oficial,2338-8679,Matutino,inteo11283@hotmail.com,"('13.5930556', '-89.5191667')",https://portal.siges.sv/pp/sede?sede=1205,,,,,,,,,,,,,,,,,,,,,,,,,,,,,,,,,,,,,,,,,,,,,,,,,,,,,,,,,,,,,,,,,,
10295,"Dirección:BARRIO EL CENTRO, MASAHUAT, SANTA ANA.",SANTA ANA,MASAHUAT,http://,"COMPLEJO EDUCATIVO ""MASAHUAT""",Centro educativo oficial,24839032,Matutino,cemasahuat@gmail.com,"('14.1919444', '-89.4291667')",https://portal.siges.sv/pp/sede?sede=300,"[12, 18, 8]","[12, 16, 18]","[20, 11, 16]","[20, 26, 10]","[15, 19, 24]","[18, 16, 15]","[11, 21, 13]","[12, 9, 19]","[13, 21, 11]","[20, 20, 23]","[27, 20, 17]","[21, 28, 18]",6.00,6.36,6.04,5.54,6.50,6.32,7.95,9.00,9.49,8.20,8.03,7.58,7.13,7.29,8.00,7.03,7.24,7.04,6.66,6.78,6.55,6.69,6.65,,8.73,9.61,9.84,9.00,8.61,8.58,7.27,7.18,7.46,7.59,,,6.96,8.00,7.30,6.97,5.38,6.89,6.42,8.00,7.63,5.87,5.59,5.94,9.18,8.00,8.82,8.40,7.36,8.48
14815,"Dirección:CALLE PRINCIPAL POLIGONO 37, PASAJE NORTE, APOPA, SAN SALVADOR, APOPA, SAN SALVADOR.",SAN SALVADOR,APOPA,http://,"CENTRO ESCOLAR ""VALLE VERDE""",Centro educativo oficial,2203-4452,Matutino,,"('13.7961111', '-89.1641667')",https://portal.siges.sv/pp/sede?sede=3244,"[7, 17, 12]","[27, 41, 50]","[62, 71, 76]","[78, 73, 95]","[68, 71, 72]","[60, 68, 75]","[63, 62, 78]","[55, 65, 58]","[61, 55, 68]","[73, 68, 65]","[76, 58, 67]","[60, 81, 57]",8.16,8.47,6.83,8.19,8.22,8.21,6.89,5.67,5.72,7.58,7.93,6.99,7.93,8.48,7.83,7.62,8.02,6.57,7.85,8.00,7.16,7.95,7.77,6.32,6.12,6.48,7.04,7.41,6.97,5.34,6.50,6.91,7.22,6.91,7.21,6.26,6.07,7.14,7.30,6.33,7.13,5.39,6.25,7.37,6.99,7.06,7.44,5.09,6.99,6.97,7.09,6.46,7.47,6.34
13048,"Dirección:CANTON EL VOLCAN, SAN MIGUEL, SAN MIGUEL, SAN MIGUEL.",SAN MIGUEL,SAN MIGUEL,http://,"CENTRO ESCOLAR ""SALVADOR MAGAÑA """,Centro educativo oficial,,Matutino,,"('13.4825', '-88.2497222')",https://portal.siges.sv/pp/sede?sede=2674,"[3, 3, 7]","[14, 11, 9]","[13, 19, 15]","[28, 17, 19]","[20, 30, 14]","[24, 23, 30]","[19, 26, 22]","[23, 19, 27]","[22, 24, 19]","[21, 22, 20]","[23, 21, 21]","[19, 23, 20]",6.52,7.57,7.29,6.54,7.03,6.67,8.05,7.86,8.11,7.97,7.89,7.75,8.64,8.99,9.53,8.74,8.33,8.21,7.54,9.14,7.83,6.84,7.55,,7.32,8.79,8.84,8.17,7.68,7.16,7.59,6.99,8.97,7.21,7.22,7.12,7.00,8.95,7.65,7.73,7.49,7.09,8.11,9.16,8.10,7.74,8.20,7.17,7.83,8.39,8.07,6.98,7.73,6.53
82017,"Dirección:CASERIO LAS PALMERAS, CANTON BELEN, J%2f CIUDAD BARRIOS, SAN MIGUEL, CIUDAD BARRIOS, SAN MIGUEL.",SAN MIGUEL,CIUDAD BARRIOS,http://,"CENTRO ESCOLAR CASERÍO LAS PALMERAS, CANTÓN BELÉN",Centro educativo oficial,,Matutino,,"('13.7697222', '-88.2811111')",https://portal.siges.sv/pp/sede?sede=7038,"[2, 11, 7]","[8, 11, 11]","[20, 11, 15]","[14, 27, 13]","[15, 14, 27]","[16, 15, 15]","[22, 17, 16]","[13, 25, 15]","[14, 11, 23]","[17, 17, 11]","[12, 12, 15]","[11, 11, 12]",7.62,7.54,7.31,7.46,8.08,7.38,6.90,,6.77,7.00,7.09,,6.87,7.42,7.93,7.08,6.93,6.53,6.92,7.33,7.82,6.96,6.18,,7.17,7.33,7.42,,,,5.98,,6.15,7.33,5.75,4.88,7.21,8.06,7.17,6.83,7.55,5.26,7.37,10.00,8.20,8.00,8.40,4.65,8.13,7.25,6.97,6.04,7.22,6.58
12218,"Dirección:6a. CALLE PONIENTE N°. 47 SENSUNTEPEQUE, SENSUNTEPEQUE, CABAÑAS.",CABAÑAS,SENSUNTEPEQUE,http://,"CENTRO ESCOLAR ""PROFESOR JOSÉ ANGEL CASTILLO""",Centro educativo oficial,23823116,Matutino,cejac12218@hotmail.com,"('13.873333', '-88.630833')",https://portal.siges.sv/pp/sede?sede=1996,"[10, 14, 19]","[14, 17, 20]","[21, 19, 17]","[28, 29, 27]","[33, 26, 26]","[19, 44, 26]","[26, 20, 47]","[24, 25, 17]","[31, 30, 20]","[28, 30, 27]","[28, 28, 20]","[26, 23, 22]",7.75,7.20,8.24,7.85,7.91,7.83,6.50,6.63,7.72,6.60,6.52,6.64,7.58,7.58,8.23,7.73,7.69,7.71,7.93,7.09,7.86,7.71,7.64,7.69,7.45,6.50,8.13,7.46,7.51,7.26,6.60,8.04,6.97,6.36,7.33,5.60,6.68,7.70,6.67,7.69,6.61,6.50,7.24,7.71,6.54,7.91,7.01,6.76,7.27,7.50,6.55,8.42,7.38,7.29
12082,"Dirección:LOTIFICACION CAMPO VERDE, CANTON LA LUCHA, ZACATECOLUCA, ZACATECOLUCA, LA PAZ.",LA PAZ,ZACATECOLUCA,http://,"CENTRO ESCOLAR ""LOTIFICACION CAMPO VERDE""",Centro educativo oficial,,Matutino,,"('13.4561111', '-88.8205556')",https://portal.siges.sv/pp/sede?sede=1874,"[3, 6, 1]","[2, 3, 6]","[5, 2, 3]","[5, 5, 2]","[5, 5, 6]","[6, 6, 4]","[5, 5, 7]","[5, 5, 5]","[1, 2, 6]",,,,7.75,9.00,8.00,7.00,6.00,,6.80,7.70,7.60,6.00,7.00,,6.63,8.25,8.00,6.00,7.88,,7.07,6.57,6.43,6.29,7.36,5.86,7.10,6.00,6.80,7.00,5.60,,6.60,6.20,6.00,7.10,,,,,,,,,,,,,,,,,,,,
11238,"Dirección:FINCA EL REFUGIO, CANTON EL CASTILLO, J%2f SAN JUAN OPICO, LA LIBERTAD, SAN JUAN OPICO, LA LIBERTAD.",LA LIBERTAD,SAN JUAN OPICO,http://,"CENTRO ESCOLAR "" FINCA EL REFUGIO, CANTON EL CASTILLO """,Centro educativo oficial,,Matutino,taniaduran.1975@gmail.com,"('13.895556', '-89.450278')",https://portal.siges.sv/pp/sede?sede=1176,"[6, 8, 4]","[5, 2, 9]","[7, 8, 4]","[10, 7, 9]","[9, 13, 6]","[13, 5, 13]","[8, 8, 5]","[13, 6, 7]","[7, 14, 5]","[11, 6, 15]","[13, 10, 5]","[12, 10, 12]",6.54,6.68,6.67,6.61,6.79,,7.08,7.17,6.67,6.92,7.08,7.50,6.96,7.62,7.04,6.92,7.08,,7.20,7.90,8.00,7.10,7.80,,6.86,7.07,6.07,6.64,6.58,6.29,5.57,6.26,5.75,6.01,6.08,,4.46,5.97,6.27,4.50,4.62,4.49,5.62,7.10,6.80,5.64,5.66,5.79,5.24,5.53,5.01,4.57,,
78011,"Dirección:CASERIO EL TASAJO, CANTON SAN JACINTO, J%2fAPASTEPEQUE. SAN VICENTE, APASTEPEQUE, SAN VICENTE.",SAN VICENTE,APASTEPEQUE,http://,"CENTRO ESCOLAR CASERÍO EL TASAJO, CANTÓN SAN JACINTO",Centro educativo oficial,,Matutino,maria.julia.umana.@docentes.mined.edu.sv.,"('13.6855556', '-88.665')",https://portal.siges.sv/pp/sede?sede=6758,"[3, 3, 1]","[4, 3, 3]","[0, 4, 2]","[1, 0, 4]","[2, 2, 0]","[4, 2, 2]","[4, 4, 2]","[5, 4, 4]","[5, 4, 5]",,,,7.63,9.00,9.13,7.13,7.38,7.75,,,,,,,6.75,7.00,6.50,6.25,,,10.00,9.00,9.75,,,,8.06,8.13,8.19,8.00,8.50,,7.96,7.60,7.58,7.71,7.50,7.38,,,,,,,,,,,,,,,,,,
70010,"Dirección:CANTON EL ZAPOTE ARRIBA, J%2f AYUTUXTEPEQUE, SAN SALVADOR, AYUTUXTEPEQUE, SAN SALVADOR.",SAN SALVADOR,AYUTUXTEPEQUE,http://,CENTRO ESCOLAR CANTÓN EL ZAPOTE ARRIBA,Centro educativo oficial,,Matutino,acezapotearriba@gmail.com,"('13.7569444', '-89.2258333')",https://portal.siges.sv/pp/sede?sede=6436,"[7, 5, 9]","[10, 12, 9]","[10, 13, 13]","[15, 13, 11]","[12, 13, 13]","[4, 12, 13]","[11, 3, 13]","[9, 10, 5]","[13, 8, 13]","[2, 11, 7]","[6, 2, 7]","[3, 7, 1]",5.45,,,,6.18,8.45,6.21,,,,6.29,7.21,6.17,,,,6.08,7.08,6.50,,,,5.96,7.08,6.00,,,,5.44,6.40,5.67,,,,4.57,6.75,6.60,,6.17,,5.54,7.86,6.83,,6.97,,6.79,7.00,5.00,,5.50,,8.00,
13291,"Dirección:CANTON CANDELARIA,, SOCIEDAD, MORAZAN.",MORAZAN,SOCIEDAD,http://,"CENTRO ESCOLAR ""CANTON CANDELARIA""",Centro educativo oficial,,"Matutino, Vespertino",daysi.elizabeth.gonzalez@docentes.mined.edu.sv,"('13.686389', '-88.028056')",https://portal.siges.sv/pp/sede?sede=2867,"[9, 7, 5]","[13, 11, 13]","[14, 11, 11]","[18, 15, 11]","[19, 18, 17]","[8, 21, 16]","[11, 8, 22]","[10, 11, 7]","[14, 14, 12]","[14, 11, 13]","[14, 12, 10]","[9, 14, 10]",6.84,7.64,7.90,7.07,7.04,6.43,6.58,7.09,7.46,6.82,6.16,,7.22,8.04,7.76,7.46,7.66,7.64,7.77,7.87,8.66,7.82,7.91,,8.20,8.57,8.64,8.07,8.22,8.29,6.81,6.86,7.57,6.73,6.70,6.82,6.63,8.19,6.80,5.13,5.91,6.95,7.59,6.79,6.13,6.25,6.95,7.48,7.63,9.40,8.76,5.22,5.83,7.63
12860,"Dirección:6ª CALLE PONIENTE Y 3ª AVENIDA SUR N°. 48, CHINAMECA, CHINAMECA, SAN MIGUEL.",SAN MIGUEL,CHINAMECA,http://,"CENTRO ESCOLAR ""DOCTOR RAFAEL SEVERO LOPEZ""",Centro educativo oficial,2665-1127,Matutino,c.e.draselo@gmail.com,"('13.5094444', '-88.3488889')",https://portal.siges.sv/pp/sede?sede=2510,"[15, 15, 15]","[22, 24, 28]","[18, 22, 24]","[24, 22, 24]","[21, 22, 22]","[28, 24, 20]","[22, 23, 25]","[30, 20, 22]","[20, 29, 18]","[28, 19, 25]","[21, 26, 18]","[24, 18, 23]",8.35,7.14,6.63,8.06,8.30,8.22,6.08,6.30,5.99,5.99,5.89,5.86,6.36,7.17,8.04,6.53,7.12,6.79,6.36,6.38,7.79,6.42,6.80,5.70,7.21,6.71,8.86,7.45,6.29,6.00,7.01,5.88,7.96,7.97,6.70,6.26,6.89,7.64,7.50,7.08,6.92,6.24,7.50,7.21,7.83,6.86,6.70,6.67,7.42,7.88,7.04,6.86,6.42,5.61
64039,"Dirección:CASERIO LAS MARIAS, CANTON LAS MARIAS, J%2f IZALCO, SONSONATE, IZALCO, SONSONATE.",SONSONATE,IZALCO,http://,"CENTRO ESCOLAR CASERÍO LAS MARÍAS, CANTÓN LAS MARIAS",Centro educativo oficial,,Matutino,,"('13.7894444', '-89.5938889')",https://portal.siges.sv/pp/sede?sede=5994,"[1, 5, 1]","[3, 5, 9]","[4, 2, 6]","[9, 4, 5]","[5, 8, 4]","[7, 5, 7]","[5, 7, 5]","[7, 5, 8]","[7, 6, 5]","[7, 6, 6]","[2, 7, 6]","[3, 2, 7]",5.40,6.80,7.00,5.60,,,5.75,6.00,6.50,5.50,,,6.29,6.64,6.71,6.36,6.07,6.50,5.50,,,,,,4.42,,,,,,5.00,,,,,,4.80,4.60,4.67,,,,,,,,,,,,,,,
10126,"Dirección:1A CALLE OTIENRE NO. 50. BARRIO SANTA LUCIA, COJUTEPEQUE, COJUTEPEQUE, CUSCATLAN.",CUSCATLAN,COJUTEPEQUE,http://,CENTRO ESCOLAR PARA SORDOS DE COJUTEPEQUE,Centro educativo oficial,3253698,Matutino,,"('13.721331', '-88.929413')",https://portal.siges.sv/pp/sede?sede=131,"[1, 0, 0]","[2, 1, 0]","[1, 4, 1]","[4, 6, 5]","[7, 2, 6]","[2, 7, 2]","[3, 2, 7]","[6, 4, 2]","[5, 5, 4]","[2, 5, 5]","[5, 2, 4]","[3, 5, 2]",7.00,7.20,8.00,7.50,,,6.67,6.17,6.75,7.00,6.83,,7.00,6.25,6.00,6.75,,,6.90,6.14,6.50,7.51,7.05,6.46,8.25,6.50,7.25,,,,7.63,6.13,6.50,7.38,6.88,7.00,6.40,6.10,6.60,5.90,,,6.88,7.38,7.25,6.75,,,6.25,7.50,7.00,6.00,5.75,6.50
11777,"Dirección:CARRETERA TRONCAL DEL NORTE KM. 6 1%2f2, CIUDAD DELGADO, SAN SALVADOR, CIUDAD DELGADO, SAN SALVADOR.",SAN SALVADOR,CIUDAD DELGADO,http://,"CENTRO ESCOLAR ""CANTÓN MILINGO""",Centro educativo oficial,21313575,Matutino,,"('13.7441667', '-89.1686111')",https://portal.siges.sv/pp/sede?sede=1601,"[18, 23, 14]","[34, 29, 40]","[51, 45, 40]","[74, 70, 60]","[67, 76, 68]","[70, 70, 75]","[67, 75, 68]","[68, 71, 74]","[70, 65, 73]","[75, 84, 62]","[71, 71, 76]","[65, 76, 65]",6.75,6.79,6.53,6.82,7.16,7.34,6.37,5.95,6.31,6.35,6.70,6.58,7.34,6.38,6.58,7.28,7.32,6.94,7.09,7.06,6.96,7.50,7.56,7.20,7.63,8.37,6.94,8.38,8.04,7.28,6.53,5.96,7.06,6.63,6.92,6.51,7.52,6.37,7.57,6.32,7.75,7.30,6.55,5.28,6.58,5.32,6.43,6.09,6.62,6.71,7.34,5.92,7.32,6.77
11676,"Dirección:COLONIA ZACAMIL,CALLE PRINCIPAL Y AVENIDA EL ESTACIONAMIENTO, CONTIGUO A P.N.C., SAN SALVADOR, MEJICANOS, SAN SALVADOR.",SAN SALVADOR,MEJICANOS,http://,"COMPLEJO EDUCATIVO ""REPÚBLICA DEL PERÚ""",Centro educativo oficial,22724762,Matutino,ceperu11676@gmail.com,"('13.7275', '-89.201111')",https://portal.siges.sv/pp/sede?sede=1520,"[31, 34, 24]","[39, 50, 57]","[52, 50, 61]","[101, 121, 121]","[88, 101, 118]","[111, 89, 118]","[100, 112, 102]","[105, 89, 118]","[119, 106, 99]","[116, 121, 121]","[106, 111, 128]","[88, 106, 112]",7.18,7.77,6.71,7.37,7.12,7.36,7.81,8.17,7.26,7.94,7.77,7.67,7.62,8.25,6.69,7.65,7.83,7.50,6.61,6.68,6.13,6.56,6.46,6.21,6.47,7.02,5.29,6.38,6.51,5.98,5.81,5.88,5.89,5.44,5.04,5.26,5.63,5.81,5.25,5.25,4.86,5.80,5.28,5.54,6.24,5.26,6.39,4.75,6.06,5.80,6.82,6.04,6.47,5.65
11662,"Dirección:FINAL 4a. CALLE ORIENTE. CENTRO URBANO Y BARRIO LOURDES, SAN SALVADOR, SAN SALVADOR, SAN SALVADOR.",SAN SALVADOR,SAN SALVADOR,http://,"CENTRO ESCOLAR ""5 DE NOVIEMBRE""",Centro educativo oficial,22714811,Matutino,educaciondigital2019@outlook.com,"('13.6955556', '-89.1786111')",https://portal.siges.sv/pp/sede?sede=1507,,,,"[42, 37, 26]","[29, 40, 26]","[38, 33, 38]","[45, 36, 32]","[36, 44, 36]","[43, 40, 40]","[52, 39, 42]","[53, 51, 31]","[29, 49, 37]",8.45,8.55,4.29,8.48,8.11,8.02,7.57,7.98,3.88,7.79,7.32,7.11,5.93,6.21,5.22,5.76,6.13,5.94,6.47,6.50,4.17,6.36,6.21,4.66,5.51,7.32,5.79,6.24,7.64,5.20,5.28,7.55,6.56,7.05,6.83,6.62,4.23,4.19,6.74,4.17,5.08,5.09,7.26,6.13,6.28,5.52,5.90,6.01,6.26,6.50,5.71,5.33,6.03,5.79
10111,"Dirección:HACIENDA HOJA DE SAL, C%2f GUAYAPA ARRIBA, JUJUTLA, AHUACHAPAN.",AHUACHAPAN,JUJUTLA,http://,"CENTRO ESCOLAR ""HACIENDA HOJA DE SAL""",Centro educativo oficial,,Matutino,,"('13.765', '-89.958056')",https://portal.siges.sv/pp/sede?sede=116,"[2, 0, 5]","[3, 5, 3]","[8, 2, 7]","[5, 16, 4]","[3, 7, 14]","[6, 5, 4]","[5, 5, 4]","[4, 5, 4]","[6, 8, 5]",,,,,,,,,,,,,,,,6.07,6.63,7.83,5.43,5.76,,6.75,7.63,8.25,6.50,6.63,6.38,5.75,6.71,7.63,6.00,5.54,5.50,6.75,7.67,8.50,7.08,6.67,7.00,,,,,,,,,,,,,,,,,,
11131,"Dirección:FINAL CALLE LA SABANA Y AVENIDA BALSAMAR, CIUDAD MERLIOT, NUEVA SAN SALVADOR, LA LIBERTAD, SANTA TECLA, LA LIBERTAD.",LA LIBERTAD,SANTA TECLA,http://,"CENTRO ESCOLAR ""JARDINES DE LA SABANA""",Centro educativo oficial,22785614,Matutino,centroescolarjardinesdelasabana1@hotmail.com,"('13.6841667', '-89.2730556')",https://portal.siges.sv/pp/sede?sede=1090,"[0, 0, 0]","[0, 0, 0]","[0, 0, 0]","[82, 71, 85]","[69, 65, 66]","[73, 64, 73]","[85, 65, 67]","[90, 65, 71]","[89, 69, 69]","[70, 82, 63]","[82, 64, 83]","[69, 59, 66]",7.86,7.96,7.34,7.96,7.64,7.80,7.28,7.27,6.64,7.33,7.26,7.29,7.92,7.84,7.71,7.83,7.92,7.75,7.16,7.99,7.43,7.57,7.77,6.94,7.61,7.74,7.27,7.61,7.46,7.01,7.79,7.79,7.21,7.08,6.98,6.58,6.82,7.40,6.94,7.01,7.05,6.75,7.08,8.15,7.00,7.33,6.92,6.65,7.68,7.58,7.40,7.51,7.63,6.84
10789,"Dirección:C%2f EL JOCOTILLO, CONCEPCION QUEZALTEPEQUE, CHALATENANGO, CONCEPCION QUEZALTEPEQUE, CHALATENANGO.",CHALATENANGO,CONCEPCION QUEZALTEPEQUE,http://,"CENTRO ESCOLAR "" CANTON EL JOCOTILLO """,Centro educativo oficial,,Matutino,,"('14.081111', '-88.99')",https://portal.siges.sv/pp/sede?sede=794,,,,"[1, 4, 1]","[1, 1, 3]","[1, 1, 1]","[3, 1, 0]","[3, 4, 1]","[1, 0, 3]","[0, 0, 0]","[0, 0, 0]","[0, 0, 0]",,,,,,,,,,,,,,,,,,,,,,,,,,,,,,,,,,,,,,,,,,,,,,,,,,,,,,
10840,"Dirección:CANTON EL TABLON, EL PARAISO, CHALATENANGO, EL PARAISO, CHALATENANGO.",CHALATENANGO,EL PARAISO,http://,"CENTRO ESCOLAR "" CANTON EL TABLON """,Centro educativo oficial,,Matutino,,"('14.083333', '-89.067778')",https://portal.siges.sv/pp/sede?sede=845,"[6, 8, 12]","[5, 8, 10]","[6, 3, 9]","[10, 13, 5]","[12, 7, 14]","[11, 11, 10]","[8, 11, 12]","[7, 7, 13]","[11, 6, 8]","[8, 15, 9]","[8, 9, 16]","[0, 7, 9]",6.00,8.16,9.16,6.83,6.17,,6.30,7.75,7.50,6.40,5.95,5.75,7.83,7.93,8.56,7.75,,,,,,,,,7.67,9.00,9.25,7.58,7.50,7.33,,,,,,,6.15,6.74,6.26,5.96,6.32,6.47,5.38,7.39,5.43,5.47,5.67,5.48,6.50,8.34,6.39,5.89,6.11,5.72
10223,"Dirección:COMUNIDAD 7 DE SEPTIEMBRE, PAJES 5, BLOCK E, (SAN BARTOLO TICZA), ILOPANGO, SAN SALVADOR.",SAN SALVADOR,ILOPANGO,http://,ESCUELA DE EDUCACION PARVULARIA COMUNIDAD 7 DE SEPTIEMBRE,Centro educativo oficial,,Matutino,,"('13.714489', '-89.1054')",https://portal.siges.sv/pp/sede?sede=228,"[29, 19, 30]","[42, 42, 30]","[0, 0, 15]",,,,,,,,,,,,,,,,,,,,,,,,,,,,,,,,,,,,,,,,,,,,,,,,,,,,,,,,,,,,,,,
10872,"Dirección:CASERIO CABALLERO, C%2f EL GRAMAL, J%2f LA PALMA, CHALATENANGO, LA PALMA, CHALATENANGO.",CHALATENANGO,LA PALMA,http://,"CENTRO ESCOLAR ""CASERIO CABALLERO, CANTON EL GRAMAL""",Centro educativo oficial,,Matutino,,"('14.308889', '-89.138333')",https://portal.siges.sv/pp/sede?sede=876,,,,"[15, 5, 6]","[11, 14, 5]","[8, 11, 15]","[4, 6, 11]","[5, 3, 7]","[2, 5, 5]","[0, 0, 0]","[0, 0, 0]","[0, 0, 0]",7.83,8.34,8.50,7.83,8.09,,4.00,4.30,5.10,4.10,4.20,,,,,,,,,,,,,,,,,,,,,,,,,,,,,,,,,,,,,,,,,,,
10291,"Dirección:FINAL CALLE PRINCIPAL,, EL PORVENIR, SANTA ANA.",SANTA ANA,EL PORVENIR,http://,"COMPLEJO EDUCATIVO ""PADRE VICENTE AGUILAR""",Centro educativo oficial,,Matutino,,"('14.0211111', '-89.6452778')",https://portal.siges.sv/pp/sede?sede=296,"[19, 22, 13]","[28, 31, 31]","[49, 37, 39]","[62, 63, 62]","[43, 63, 51]","[42, 44, 52]","[51, 50, 39]","[30, 44, 40]","[30, 29, 41]","[58, 45, 38]","[46, 46, 30]","[35, 44, 42]",6.65,7.88,7.53,6.67,6.51,6.18,7.46,7.67,6.50,7.49,7.28,7.10,7.21,7.22,6.79,7.26,7.01,6.78,6.73,6.98,6.36,6.80,6.64,6.35,6.94,7.80,6.47,7.01,6.93,7.00,7.00,7.73,7.46,6.86,7.20,6.59,4.69,5.50,4.18,4.32,4.04,4.26,6.22,6.32,5.95,6.16,6.59,5.58,5.75,6.73,5.49,5.29,5.63,5.62
12054,"Dirección:CASERIO OJO DE AGUA, C%2f EL PEDREGAL , EL ROSARIO,, EL ROSARIO, LA PAZ.",LA PAZ,EL ROSARIO,http://,"CENTRO ESCOLAR ""CASERIO OJO DE AGUA""",Centro educativo oficial,,Matutino,,"('13.4752778', '-88.9705556')",https://portal.siges.sv/pp/sede?sede=1849,"[1, 5, 3]","[11, 10, 8]","[15, 14, 11]","[11, 12, 12]","[9, 11, 14]","[7, 9, 10]","[4, 7, 9]","[8, 3, 7]","[9, 9, 3]","[0, 0, 0]","[0, 0, 0]","[0, 0, 0]",6.88,7.38,7.92,6.83,6.67,,6.42,6.71,7.34,7.00,6.61,6.53,6.55,6.80,7.25,6.20,6.25,,6.79,6.86,7.33,6.55,6.58,6.45,7.71,8.21,8.43,8.00,6.93,,8.00,8.34,8.16,7.83,7.50,,,,,,,,,,,,,,,,,,,
11325,"Dirección:KILOMETRO 18 ANTIGUA CARRETERA TRONCAL DEL NORTE, APOPA, SAN SALVADOR, APOPA, SAN SALVADOR.",SAN SALVADOR,APOPA,http://,"CENTRO ESCOLAR ""CASERIO EL GUAYCUME, CANTON SAN NICOLAS""",Centro educativo oficial,,Matutino,,"('13.831389', '-89.149444')",https://portal.siges.sv/pp/sede?sede=1234,"[5, 4, 3]","[6, 9, 8]","[6, 11, 13]","[12, 9, 9]","[12, 12, 8]","[4, 12, 13]","[9, 4, 12]","[11, 9, 4]","[9, 10, 9]","[5, 9, 12]","[9, 3, 8]","[7, 8, 4]",7.33,8.00,7.00,6.78,6.33,,9.62,8.81,9.00,9.56,9.48,,8.38,8.27,7.88,8.54,8.00,,9.29,9.50,9.88,9.13,9.46,8.58,6.88,8.13,8.00,7.75,7.25,6.75,7.45,8.05,7.78,7.95,7.55,,6.54,7.79,7.33,7.17,6.75,6.29,6.70,7.23,6.80,6.53,6.83,6.63,7.50,7.75,6.25,6.50,7.88,6.88
12117,"Dirección:FINAL 12 CALLE PONIENTE. Y 6a. AVENIDA. NTE. BARRIO. ANALCO, ZACATECOLUCA, ZACATECOLUCA, LA PAZ.",LA PAZ,ZACATECOLUCA,http://,"COMPLEJO EDUCATIVO ""PROFESOR CARLOS LOBATO""",Centro educativo oficial,23344720,"Jornada completa, Matutino, Vespertino",,"('13.513056', '-88.872778')",https://portal.siges.sv/pp/sede?sede=1904,"[10, 7, 1]","[15, 17, 11]","[15, 20, 24]","[45, 34, 32]","[25, 46, 28]","[27, 31, 41]","[28, 30, 35]","[24, 32, 31]","[31, 32, 26]","[69, 48, 42]","[62, 80, 38]","[51, 79, 64]",7.37,7.80,7.04,7.54,7.28,,7.10,7.34,7.53,7.18,7.23,6.92,7.62,7.74,7.64,7.30,7.83,7.54,7.18,7.42,6.50,7.15,7.13,6.95,5.11,5.37,6.25,5.13,5.29,5.17,5.59,5.08,6.03,5.87,5.52,5.19,4.41,6.17,5.99,5.89,4.95,4.99,5.08,6.21,4.92,4.47,5.45,4.27,5.33,7.12,5.53,5.22,4.81,5.36
12997,"Dirección:COLONIA SANTA INES, CANTON EL ZAMORAN, SAN MIGUEL, SAN MIGUEL, SAN MIGUEL.",SAN MIGUEL,SAN MIGUEL,http://,"ESCUELA DE EDUCACION ESPECIAL ""DE LA COLONIA SANTA INES""",Centro educativo oficial,,Matutino,,"('13.500695', '-88.168102')",https://portal.siges.sv/pp/sede?sede=2626,,,,,,,,,,,,,,,,,,,,,,,,,,,,,,,,,,,,,,,,,,,,,,,,,,,,,,,,,,,,,,,,,,
12486,"Dirección:CANTON TALPETATE, COOPERATIVA LAS BURRAS, BERLIN, BERLIN, USULUTAN.",USULUTAN,BERLIN,http://,"CENTRO ESCOLAR ""COOPERATIVA LAS BURRAS, CANTON TALPETATE""",Centro educativo oficial,,Matutino,,"('13.5672222', '-88.5783333')",https://portal.siges.sv/pp/sede?sede=2208,"[1, 7, 3]","[10, 3, 8]","[5, 11, 3]","[17, 9, 10]","[8, 16, 9]","[7, 7, 15]","[5, 7, 6]","[10, 5, 7]","[3, 9, 5]",,,,7.38,7.71,7.84,7.18,7.29,7.14,6.83,7.22,7.50,6.89,6.61,6.28,7.09,7.32,7.58,7.13,7.00,6.36,7.00,8.00,6.33,6.00,,,5.86,6.14,6.00,7.00,,,6.50,5.83,6.00,6.83,,,,,,,,,,,,,,,,,,,,
11356,"Dirección:CANTON EL ZAPOTE ABAJO, AYUTUXTEPEQUE, SAN SALVADOR, AYUTUXTEPEQUE, SAN SALVADOR.",SAN SALVADOR,AYUTUXTEPEQUE,http://,"CENTRO ESCOLAR "" CANTON EL ZAPOTE """,Centro educativo oficial,,Matutino,sergio.vanegas@ymail.com,"('13.755833', '-89.208611')",https://portal.siges.sv/pp/sede?sede=1264,"[27, 8, 12]","[0, 21, 14]","[16, 10, 26]","[24, 18, 17]","[17, 22, 20]","[18, 17, 23]","[24, 16, 18]","[15, 24, 18]","[18, 14, 26]","[12, 18, 11]","[12, 10, 19]","[17, 7, 12]",8.00,8.12,8.65,8.09,7.88,7.48,7.29,7.51,7.13,7.37,7.60,7.44,7.04,7.62,7.68,7.00,6.98,6.88,6.36,6.56,7.99,6.71,6.66,6.37,7.70,8.14,8.00,8.09,7.45,7.11,7.84,8.21,7.95,7.77,7.73,7.54,7.53,7.96,6.27,6.64,6.32,7.18,6.13,7.24,6.92,6.11,5.37,6.24,6.17,7.62,5.42,6.00,5.54,6.53
60033,"Dirección:CANTON EL LIMO, J%2fCONCEPCION DE ATACO, AHUACHAPAN, CONCEPCION DE ATACO, AHUACHAPAN.",AHUACHAPAN,CONCEPCION DE ATACO,http://,CENTRO ESCOLAR CANTÓN EL LIMO,Centro educativo oficial,,Matutino,,"('13.8802778', '-89.8838889')",https://portal.siges.sv/pp/sede?sede=5547,"[0, 1, 3]","[0, 2, 2]","[0, 3, 2]","[0, 0, 4]","[1, 0, 0]","[1, 1, 0]","[1, 2, 1]","[4, 3, 3]","[1, 3, 3]",,,,6.13,5.75,5.88,,,,,,,,,,,,,,,,7.00,6.00,7.50,,,,4.67,4.83,4.50,4.33,,,5.83,6.17,6.00,6.33,,,,,,,,,,,,,,,,,,,,
11760,"Dirección:COLONIA ESCALANTE, CANTON EL ARENAL, CIUDAD DELGADO, SAN SALVADOR, CIUDAD DELGADO, SAN SALVADOR.",SAN SALVADOR,CIUDAD DELGADO,http://,"CENTRO ESCOLAR "" COLONIA ESCALANTE """,Centro educativo oficial,25124949,Matutino,ortiz1202-@hotmail.com,"('13.7425', '-89.178056')",https://portal.siges.sv/pp/sede?sede=1588,"[3, 8, 2]","[10, 3, 8]","[14, 4, 3]","[17, 5, 4]","[13, 5, 5]","[18, 5, 6]","[13, 12, 6]","[15, 8, 12]","[11, 10, 8]","[16, 2, 10]","[20, 4, 3]","[16, 7, 4]",6.63,7.13,7.25,6.88,6.38,,6.60,6.90,7.30,6.50,5.90,,6.83,7.50,7.67,6.75,6.92,6.08,6.42,6.50,6.58,6.00,,,7.63,7.54,8.04,7.67,7.58,7.08,7.75,7.75,7.94,7.82,7.44,7.32,6.40,7.10,6.55,6.30,6.25,,7.17,7.83,7.50,7.33,,,8.25,8.50,8.38,7.88,8.13,
60276,"Dirección:Caserío Ulapa, Cantón Ulapa Arriba, ZACATECOLUCA, LA PAZ.",LA PAZ,ZACATECOLUCA,http://,"CENTRO ESCOLAR CASERÍO ULAPA ARRIBA, CANTÓN ULAPA ARRIBA",Centro educativo oficial,,Matutino,,"('13.521944', '-88.888889')",https://portal.siges.sv/pp/sede?sede=5790,"[3, 2, 2]","[9, 3, 7]","[6, 7, 3]","[6, 7, 9]","[8, 6, 7]","[7, 6, 7]","[4, 6, 6]","[13, 4, 6]","[2, 13, 4]",,,,8.05,8.95,9.34,6.88,7.50,,9.04,9.27,10.00,8.79,8.32,8.95,7.06,7.56,8.12,6.91,6.29,5.89,7.42,7.83,8.25,7.08,6.75,7.08,8.25,9.00,9.84,8.16,8.66,7.42,7.38,9.25,9.88,7.25,7.63,7.13,,,,,,,,,,,,,,,,,,
82004,"Dirección:CANTON LA ORILLA, J%2fCAROLINA, SAN MIGUEL, CAROLINA, SAN MIGUEL.",SAN MIGUEL,CAROLINA,http://,CENTRO ESCOLAR CANTÓN LA ORILLA,Centro educativo oficial,,Matutino,,"('13.8794444', '-88.3488889')",https://portal.siges.sv/pp/sede?sede=7026,"[4, 2, 0]","[9, 8, 9]","[9, 10, 15]","[16, 13, 13]","[12, 16, 12]","[12, 12, 16]","[6, 13, 11]","[9, 6, 12]","[10, 11, 6]","[13, 13, 19]","[5, 14, 14]","[11, 6, 14]",6.81,7.50,6.88,6.92,6.66,6.26,7.08,7.54,6.83,7.17,6.92,6.46,7.00,7.55,7.83,7.36,6.87,6.78,7.78,8.18,7.91,7.54,7.82,,6.46,7.00,6.83,6.75,6.13,,6.54,7.17,6.76,6.07,,,6.77,7.93,6.52,5.78,6.64,5.47,6.96,7.78,7.13,7.53,6.92,6.04,6.30,6.83,6.14,6.24,6.50,5.88
70009,"Dirección:CANTON TRES CEIBAS ARRIBA, J%2fAPOPA, SAN SALVADOR, APOPA, SAN SALVADOR.",SAN SALVADOR,APOPA,http://,CENTRO ESCOLAR CANTÓN TRES CEIBAS ARRIBA,Centro educativo oficial,25176096,Matutino,,"('13.8269444', '-89.1922222')",https://portal.siges.sv/pp/sede?sede=6435,"[6, 13, 2]","[7, 15, 17]","[16, 13, 9]","[14, 25, 8]","[24, 18, 18]","[18, 24, 12]","[24, 19, 18]","[17, 24, 14]","[15, 18, 23]","[19, 21, 17]","[16, 21, 17]","[21, 14, 21]",7.94,9.09,5.40,7.57,7.25,7.19,8.79,8.29,8.83,8.63,8.59,8.91,7.77,8.60,8.71,7.72,8.35,7.84,7.42,8.93,8.83,7.28,7.58,6.41,8.38,8.95,9.22,7.68,7.98,6.73,8.16,7.93,8.03,7.19,7.80,6.46,7.83,8.45,7.39,8.12,7.01,6.32,8.76,7.23,7.13,8.01,7.03,5.92,8.68,7.28,7.92,7.94,6.87,6.35
10916,"Dirección:BARRIO EL ROSARIO, NUEVA CONCEPCION, CHALATENANGO, NUEVA CONCEPCION, CHALATENANGO.",CHALATENANGO,NUEVA CONCEPCION,http://,"CENTRO ESCOLAR ""MIGUEL ELÍAS GUILLÉN""",Centro educativo oficial,23357014,Matutino,ce_bo_elrosario@hotmail.com,"('14.12888', '-89.289287')",https://portal.siges.sv/pp/sede?sede=911,"[13, 10, 3]","[7, 16, 14]","[15, 14, 24]","[57, 62, 61]","[73, 64, 60]","[57, 80, 61]","[64, 55, 62]","[79, 61, 58]","[68, 70, 55]","[63, 64, 66]","[58, 63, 54]","[53, 49, 54]",8.27,7.88,8.48,7.99,8.07,7.93,8.61,8.01,7.68,8.11,7.99,7.81,7.62,7.31,7.38,7.25,7.51,6.52,6.62,7.33,6.45,7.30,7.01,6.36,7.31,6.32,6.43,7.25,7.51,6.82,6.59,6.45,6.76,6.47,7.11,6.14,5.99,6.31,4.97,4.72,6.04,5.43,6.37,6.67,5.51,5.37,6.18,5.36,6.67,7.05,5.79,5.51,6.54,6.35
60179,"Dirección:CASERI0 SAN JOSE, CANTON LAS FLORES, J%2f SANTIAGO DE MARIA, USULUTAN, SANTIAGO DE MARIA, USULUTAN.",USULUTAN,SANTIAGO DE MARIA,http://,"CENTRO ESCOLAR CASERÍO SAN JOSÉ, CANTÓN LAS FLORES",Centro educativo oficial,,Matutino,,"('13.490556', '-88.466389')",https://portal.siges.sv/pp/sede?sede=5693,"[2, 1, 0]","[1, 2, 1]","[1, 1, 3]","[3, 2, 2]","[3, 2, 2]","[3, 1, 2]","[2, 2, 1]","[1, 2, 2]","[0, 1, 2]",,,,,,,,,,6.50,7.00,6.00,5.50,,,7.50,9.50,6.00,6.50,,,6.00,7.00,6.50,5.50,,,7.00,7.50,5.50,,,,6.25,6.50,7.00,6.75,6.00,,,,,,,,,,,,,,,,,,,
64055,"Dirección:CASERIO LA CUMBRE, CANTON LOS NARANJOS, J%2f JUAYUA, SONSONATE, JUAYUA, SONSONATE.",SONSONATE,JUAYUA,http://,"CENTRO ESCOLAR CASERÍO LA CUMBRE, CANTÓN LOS NARANJOS",Centro educativo oficial,,Matutino,,"('13.889906', '-89.685352')",https://portal.siges.sv/pp/sede?sede=6010,"[6, 2, 0]","[2, 10, 2]","[6, 2, 12]","[8, 9, 2]","[9, 4, 10]","[2, 7, 5]","[7, 0, 6]","[0, 0, 0]","[0, 0, 0]","[0, 0, 0]","[0, 0, 0]","[0, 0, 0]",,,,,,,,,,,,,,,,,,,,,,,,,,,,,,,,,,,,,,,,,,,,,,,,,,,,,,
10069,"Dirección:CANTON ZUNCA, ATIQUIZAYA, AHUACHAPAN.",AHUACHAPAN,ATIQUIZAYA,http://,"CENTRO ESCOLAR ""FRAY MARTIN DE PORRES""",Centro educativo oficial,,Matutino,,"('14.0083333', '-89.7661111')",https://portal.siges.sv/pp/sede?sede=74,"[0, 0, 0]","[0, 0, 0]","[0, 0, 0]","[15, 19, 12]","[11, 13, 13]","[13, 9, 11]","[5, 10, 7]","[7, 7, 9]","[0, 0, 0]",,,,6.99,6.70,6.83,6.76,6.46,6.27,6.50,6.88,7.00,6.70,6.24,6.23,6.66,7.00,6.74,6.39,,,6.63,6.73,6.60,6.43,6.21,6.01,7.11,7.00,6.89,6.95,,,,,,,,,,,,,,,,,,,,,,,,,,
10113,"Dirección:CASERIO CUILAPA, C%2f GUAYAPA ARRIBA, JUJUTLA, AHUACHAPAN.",AHUACHAPAN,JUJUTLA,http://,"CENTRO ESCOLAR ""CASERIO CUILAPA""",Centro educativo oficial,,Matutino,,"('13.7308333', '-89.9561111')",https://portal.siges.sv/pp/sede?sede=118,"[1, 0, 0]","[9, 4, 2]","[10, 12, 7]","[5, 11, 10]","[11, 5, 8]","[14, 10, 5]","[8, 13, 10]","[6, 8, 8]","[8, 4, 7]","[0, 0, 0]","[0, 0, 0]","[0, 0, 0]",5.79,6.08,6.22,5.79,5.68,,6.49,6.93,7.00,6.54,6.25,6.33,6.30,6.70,6.80,6.60,5.90,,6.80,6.75,7.25,7.15,6.55,6.00,6.23,6.32,6.75,6.44,5.98,5.61,6.54,6.61,7.16,6.48,6.36,6.08,,,,,,,,,,,,,,,,,,
72046,"Dirección:CASERIO EL MAGUEYAL, CANTON JIBOA, J%2fSAN RAFAEL CEDROS, CUSCATLAN, SAN RAFAEL CEDROS, CUSCATLAN.",CUSCATLAN,SAN RAFAEL CEDROS,http://,"CENTRO ESCOLAR CASERÍO EL MAGUEYAL, CANTÓN JIBOA",Centro educativo oficial,,Matutino,,"('13.741667', '-88.874444')",https://portal.siges.sv/pp/sede?sede=6553,"[9, 5, 2]","[6, 10, 5]","[8, 6, 17]","[16, 12, 12]","[15, 16, 13]","[11, 10, 15]","[11, 11, 12]","[12, 8, 12]","[4, 9, 9]","[0, 0, 0]","[0, 0, 0]","[0, 0, 0]",9.00,10.00,9.13,8.96,9.46,,8.38,9.65,9.73,8.31,8.73,,7.00,7.63,9.65,6.90,6.97,6.54,8.85,8.82,9.29,8.76,8.79,8.60,7.38,8.42,9.46,7.71,,,7.11,8.28,9.50,7.45,7.28,7.33,,,,,,,,,,,,,,,,,,
12477,"Dirección:CANTON LA PEÑA, ALEGRIA, USULUTAN, ALEGRIA, USULUTAN.",USULUTAN,ALEGRIA,http://,"CENTRO ESCOLAR ""CANTON LA PEÑA""",Centro educativo oficial,,Matutino,,"('13.5219444', '-88.4594444')",https://portal.siges.sv/pp/sede?sede=2201,"[6, 3, 3]","[20, 20, 20]","[31, 29, 30]","[25, 33, 28]","[20, 22, 33]","[27, 19, 22]","[27, 27, 19]","[32, 27, 28]","[25, 32, 28]","[30, 26, 30]","[35, 27, 24]","[20, 35, 30]",6.42,6.82,6.98,6.33,6.27,,6.87,7.36,7.81,7.12,6.99,,6.70,6.89,6.91,6.72,6.58,,6.92,7.95,8.00,6.84,6.84,6.63,7.04,7.84,8.00,6.96,7.52,6.82,5.70,6.21,6.20,5.77,5.67,5.84,6.29,6.33,6.58,5.84,6.08,6.16,6.42,6.77,6.64,6.42,6.21,,6.65,6.74,6.68,5.87,6.17,6.05
10161,"Dirección:ASENTAMIENTO GUADALUPE, CANTON TIERRA COLORADA, SAN JULIAN, SONSONATE.",SONSONATE,SAN JULIAN,http://,CENTRO ESCOLAR COLONIA GUADALUPE,Centro educativo oficial,,Matutino,,"('13.692379', '-89.552147')",https://portal.siges.sv/pp/sede?sede=166,"[0, 5, 3]","[11, 10, 8]","[23, 14, 17]","[24, 30, 17]","[13, 25, 31]","[21, 15, 23]","[17, 24, 15]","[21, 18, 21]","[11, 21, 16]","[14, 13, 24]","[18, 13, 13]","[7, 19, 13]",6.09,6.62,6.79,6.74,6.24,5.91,6.93,7.20,6.84,6.78,6.46,6.57,6.27,6.50,6.42,5.78,6.40,5.75,6.40,7.57,8.00,6.87,6.54,5.93,6.28,7.25,7.76,6.38,6.74,5.48,6.66,7.67,8.18,6.77,7.14,6.74,6.51,6.04,5.59,5.55,6.42,5.68,5.51,6.50,5.84,5.82,6.16,5.26,6.71,6.72,6.56,5.88,6.45,5.85
78064,"Dirección:CANTON SANTA GERTRUDIS, J%2f SAN VICENTE, SAN VICENTE., SAN VICENTE, SAN VICENTE.",SAN VICENTE,SAN VICENTE,http://,CENTRO ESCOLAR CANTÓN SANTA GERTRUDIS,Centro educativo oficial,,Matutino,,"('13.583056', '-88.77')",https://portal.siges.sv/pp/sede?sede=6811,"[14, 12, 10]","[13, 16, 16]","[16, 14, 14]","[9, 15, 19]","[17, 9, 16]","[11, 16, 7]","[14, 11, 12]","[21, 13, 10]","[18, 21, 11]",,,,6.87,8.19,9.00,6.92,6.87,6.95,6.84,8.81,8.88,7.16,6.94,,6.76,7.63,7.49,6.89,6.61,,6.81,7.91,8.29,7.16,7.00,6.64,8.15,8.05,8.75,8.00,7.95,7.85,7.68,7.91,8.27,7.82,7.73,7.46,,,,,,,,,,,,,,,,,,
10201,"Dirección:COLONIA LAS LUPITAS, CANTON LA JOYA, COATEPEQUE, SANTA ANA.",SANTA ANA,COATEPEQUE,http://,"CENTRO ESCOLAR ""COLONIA LAS LUPITAS""",Centro educativo oficial,,Matutino,,"('13.85408708', '-89.45301711')",https://portal.siges.sv/pp/sede?sede=206,"[0, 7, 4]","[12, 17, 15]","[19, 14, 18]","[21, 18, 17]","[25, 21, 19]","[20, 19, 24]","[28, 22, 21]","[23, 26, 15]","[21, 22, 22]","[21, 26, 21]","[18, 19, 21]","[23, 18, 14]",6.36,7.50,7.54,6.41,6.35,6.24,7.00,7.67,7.78,6.99,7.01,,7.14,7.42,7.58,7.11,7.26,7.13,7.13,7.55,7.43,7.12,5.84,6.67,7.12,6.61,7.33,6.73,7.19,6.64,6.93,7.12,7.18,7.00,6.97,6.60,7.39,7.32,7.22,6.63,6.99,6.64,5.82,6.79,6.91,5.70,5.94,6.06,7.59,8.32,8.30,6.68,7.18,7.30
80177,"Dirección:CASERIO EL CHARCAL, CANTON EL TECOMATAL J%2f ESTANZUELAS, USULUTAN, ESTANZUELAS, USULUTAN.",USULUTAN,ESTANZUELAS,http://,"CENTRO ESCOLAR CASERÍO EL CHARCAL, CANTÓN EL TECOMATAL",Centro educativo oficial,,Matutino,,"('13.652778', '-88.519444')",https://portal.siges.sv/pp/sede?sede=7018,"[5, 0, 6]","[5, 6, 2]","[4, 5, 8]","[3, 6, 6]","[5, 3, 6]","[4, 7, 3]","[6, 2, 7]","[4, 8, 2]","[2, 4, 8]",,,,6.00,5.75,5.67,6.25,6.17,,6.92,6.50,6.42,6.67,7.75,6.25,6.67,6.50,7.17,6.83,5.83,,5.33,5.71,5.43,5.48,5.24,,6.00,7.00,5.75,5.00,,,6.69,7.13,6.82,6.88,5.75,,,,,,,,,,,,,,,,,,,
82150,"Dirección:CASERIO SANTA ANITA, CANTON LA CEIBITA, J%2f CAROLINA, SAN MIGUEL, CAROLINA, SAN MIGUEL.",SAN MIGUEL,CAROLINA,http://,"CENTRO ESCOLAR CASERÍO SANTA ANITA, CANTÓN LA CEIBITA",Centro educativo oficial,,Matutino,,"('13.9075', '-88.298611')",https://portal.siges.sv/pp/sede?sede=7159,"[2, 2, 0]","[4, 4, 4]","[4, 4, 5]","[4, 4, 6]","[6, 4, 4]","[7, 6, 4]","[5, 7, 6]","[9, 5, 6]","[7, 9, 4]","[0, 7, 7]","[0, 0, 6]","[0, 0, 0]",7.17,8.00,8.38,7.58,6.71,6.46,7.50,8.25,8.50,7.25,,,7.50,8.25,7.75,,,,7.50,8.33,8.50,7.67,7.00,6.67,7.33,8.50,7.67,7.17,6.50,,7.75,9.00,8.50,7.25,,,7.57,8.29,7.71,8.43,6.86,,7.00,7.67,7.83,7.17,6.67,,,,,,,
13484,"Dirección:CANTON EL COLORADO, PASAQUINA, LA UNION, PASAQUINA, LA UNIÓN.",LA UNIÓN,PASAQUINA,http://,"CENTRO ESCOLAR "" CANTON EL COLORADO """,Centro educativo oficial,,Matutino,,"('13.5052778', '-87.8347222')",https://portal.siges.sv/pp/sede?sede=3038,"[4, 2, 1]","[5, 3, 3]","[3, 5, 5]","[5, 2, 2]","[8, 5, 1]","[3, 7, 6]","[6, 3, 7]","[3, 5, 3]","[8, 3, 4]",,,,6.50,7.25,7.75,6.75,6.25,,7.50,8.00,7.00,,,,7.33,8.25,8.16,7.83,7.25,,7.30,7.34,7.76,7.42,7.09,7.29,8.05,8.55,9.34,8.45,7.72,7.26,8.87,9.05,9.57,8.56,8.18,8.64,,,,,,,,,,,,,,,,,,
86034,"Dirección:CANTON EL TEJAR, J%2fEL CARMEN, LA UNION., EL CARMEN, LA UNIÓN.",LA UNIÓN,EL CARMEN,http://,CENTRO ESCOLAR CANTÓN EL TEJAR,Centro educativo oficial,,Matutino,,"('13.327778', '-88.001944')",https://portal.siges.sv/pp/sede?sede=7327,"[2, 2, 0]","[0, 0, 3]","[6, 0, 0]","[0, 6, 0]","[0, 0, 6]","[1, 0, 0]","[0, 1, 0]","[0, 0, 0]","[0, 0, 0]","[0, 0, 0]","[0, 0, 0]","[0, 0, 0]",,,,,,,8.00,8.09,8.66,8.34,8.25,,,,,,,,,,,,,,,,,,,,,,,,,,,,,,,,,,,,,,,,,,,
10246,"Dirección:CALLE PRINCIPAL, PASAJE NATIVIDAD, COMUNIDAD NUEVA JERUSALEN, TONACATEPEQUE, SAN SALVADOR.",SAN SALVADOR,TONACATEPEQUE,http://,CENTRO ESCOLAR COMUNIDAD NUEVA JERUSALÉN,Centro educativo oficial,,Matutino,,"('13.810133', '-89.148651')",https://portal.siges.sv/pp/sede?sede=251,"[6, 5, 6]","[25, 19, 14]","[14, 27, 22]","[23, 28, 39]","[24, 25, 17]","[27, 19, 21]","[15, 16, 18]","[13, 11, 18]","[12, 12, 9]","[0, 0, 0]","[0, 0, 0]","[0, 0, 0]",5.54,5.99,6.30,5.63,5.59,5.71,4.17,4.50,5.62,4.24,4.36,4.86,7.79,7.93,8.05,7.39,7.43,7.46,7.38,8.19,7.88,7.66,7.44,7.00,8.09,8.57,8.27,8.03,7.88,7.41,8.28,8.89,8.66,8.16,7.33,,,,,,,,,,,,,,,,,,,
10327,"Dirección:CANTON CUYUISCAT, METAPAN, SANTA ANA.",SANTA ANA,METAPAN,http://,"CENTRO ESCOLAR "" CANTON CUYUISCAT """,Centro educativo oficial,,Matutino,,"('14.2561111', '-89.3475')",https://portal.siges.sv/pp/sede?sede=332,"[3, 1, 0]","[0, 8, 3]","[7, 8, 11]","[7, 10, 6]","[6, 7, 5]","[9, 7, 2]","[10, 10, 4]","[11, 10, 6]","[13, 10, 6]","[0, 0, 0]","[0, 0, 0]","[0, 0, 0]",7.55,8.50,9.31,7.80,7.70,7.67,6.64,6.98,6.93,6.60,6.70,6.49,7.08,6.92,7.42,6.83,,,7.03,7.50,8.80,6.83,6.58,6.55,7.05,7.37,7.51,6.75,6.62,6.58,6.93,7.56,7.96,7.17,6.86,6.67,,,,,,,,,,,,,,,,,,
10418,"Dirección:CASERIO EL COBANO, C%2f NANCINTEPEQUE., SANTA ANA, SANTA ANA.",SANTA ANA,SANTA ANA,http://,"CENTRO ESCOLAR ""CASERIO EL COBANO, CANTON NANCINTEPEQUE""",Centro educativo oficial,,Matutino,,"('14.0108333', '-89.4552778')",https://portal.siges.sv/pp/sede?sede=423,"[2, 4, 0]","[0, 3, 6]","[1, 1, 2]","[7, 2, 3]","[6, 7, 2]","[3, 6, 6]","[2, 3, 7]","[1, 2, 4]","[2, 4, 2]","[0, 0, 0]","[0, 0, 0]","[0, 0, 0]",6.50,7.67,8.00,6.83,,,6.75,7.50,7.00,7.25,6.50,,6.17,6.75,7.00,5.92,,,6.86,8.14,8.57,7.43,7.07,6.57,5.75,6.50,7.00,5.88,,,7.00,7.50,8.00,7.25,6.75,,,,,,,,,,,,,,,,,,,
10461,"Dirección:CANTON CAMONES, SANTA ANA, SANTA ANA.",SANTA ANA,SANTA ANA,http://,"CENTRO ESCOLAR ""JOSE ALEJANDRO CABRERA""",Centro educativo oficial,,Matutino,,"('14.0508333', '-89.4969444')",https://portal.siges.sv/pp/sede?sede=466,"[3, 3, 1]","[10, 5, 7]","[8, 11, 6]","[19, 7, 11]","[13, 19, 8]","[18, 14, 17]","[9, 16, 16]","[12, 11, 16]","[8, 12, 12]","[7, 9, 9]","[6, 5, 8]","[14, 6, 5]",7.27,7.09,6.96,7.13,7.04,7.14,6.76,6.69,6.67,6.51,6.67,6.63,5.86,6.07,6.16,5.86,5.91,,6.69,7.50,7.25,6.84,7.09,6.04,7.41,8.81,8.40,7.31,7.93,6.88,5.80,6.00,6.20,5.70,5.93,5.63,6.61,6.07,6.83,6.67,6.89,6.78,6.58,5.70,7.00,6.50,6.21,,6.88,6.42,7.80,7.13,7.20,7.35
10537,"Dirección:CASERIO AGUACATAL, CANTON COSTA RICA, J%2f TEXISTEPEQUE, TEXISTEPEQUE, SANTA ANA.",SANTA ANA,TEXISTEPEQUE,http://,"CENTRO ESCOLAR "" CASERIO AGUACATAL, CANTON COSTA RICA """,Centro educativo oficial,,Matutino,,"('14.1266667', '-89.4827778')",https://portal.siges.sv/pp/sede?sede=542,"[1, 2, 1]","[2, 1, 5]","[9, 5, 8]","[9, 16, 12]","[11, 9, 9]","[15, 16, 10]","[9, 16, 14]","[21, 10, 13]","[9, 16, 5]","[17, 13, 16]","[18, 14, 10]","[8, 15, 13]",7.92,7.04,7.96,7.71,7.75,7.92,6.62,6.58,6.48,6.68,6.79,6.68,7.13,7.63,8.22,6.39,6.43,6.24,6.18,7.12,7.25,5.28,6.33,5.76,6.67,7.61,7.74,6.30,6.61,4.95,6.34,6.88,4.68,4.11,4.92,6.20,5.75,7.42,7.05,6.33,6.22,4.93,4.96,6.33,5.72,4.79,5.33,4.38,6.00,7.58,7.46,6.28,6.32,5.42
10424,"Dirección:Colonia Michelle, barrio La Cruz San Juan Opico, SAN JUAN OPICO, LA LIBERTAD.",LA LIBERTAD,SAN JUAN OPICO,http://,"CENTRO ESCOLAR ""PROFESORA JUANA DEL CARMEN BARRERA AQUINO""",Centro educativo oficial,76712819,Matutino,,"('13.872851', '-89.350083')",https://portal.siges.sv/pp/sede?sede=429,"[3, 4, 2]","[3, 6, 10]","[13, 6, 20]","[20, 23, 21]","[11, 17, 19]","[19, 14, 14]","[15, 22, 13]","[17, 16, 18]","[10, 19, 16]","[13, 12, 22]","[11, 12, 9]","[15, 12, 15]",6.61,7.30,7.84,6.70,6.16,6.25,7.95,8.08,8.43,7.66,8.31,7.39,8.50,8.64,9.82,7.93,8.43,8.32,8.29,9.70,9.80,8.09,7.90,7.20,7.77,8.14,8.38,8.12,7.90,7.68,8.07,7.28,9.16,8.13,8.24,6.48,5.96,7.33,5.64,5.59,6.51,5.66,4.88,6.75,5.13,5.04,4.99,,6.00,8.15,6.82,6.83,6.77,5.26
86179,"Dirección:CASERIO EL FRANCO, CANTON SALITRE, J%2f SAN JOSE GUAYABAL, CUSCATLAN, SAN JOSE GUAYABAL, CUSCATLAN.",CUSCATLAN,SAN JOSE GUAYABAL,http://,"CENTRO ESCOLAR CASERÍO EL FRANCO, CANTÓN EL SALITRE",Centro educativo oficial,,Matutino,,"('13.89', '-89.097222')",https://portal.siges.sv/pp/sede?sede=7452,,"[1, 0, 0]","[0, 1, 0]","[0, 1, 2]","[1, 1, 2]","[1, 1, 1]","[1, 1, 2]","[1, 1, 0]","[0, 1, 1]","[0, 0, 0]","[0, 0, 0]","[0, 0, 0]",6.50,7.25,7.75,6.25,6.00,6.75,7.25,7.50,7.75,7.00,6.75,,6.00,6.50,7.00,5.50,5.00,,8.75,8.25,8.50,,,,,,,,,,8.00,8.50,7.50,,,,,,,,,,,,,,,,,,,,,
10582,"Dirección:CASERIO LA VUELTA, C%2f LA PUERTA,, ARMENIA, SONSONATE.",SONSONATE,ARMENIA,http://,"CENTRO ESCOLAR ""BACHILLER RUBÉN A. RODRÍGUEZ """,Centro educativo oficial,,Matutino,,"('13.7480556', '-89.5216667')",https://portal.siges.sv/pp/sede?sede=587,"[5, 2, 0]","[4, 4, 7]","[7, 4, 6]","[6, 5, 11]","[7, 5, 5]","[6, 7, 4]","[4, 5, 7]","[3, 4, 5]","[2, 2, 6]","[0, 0, 0]","[0, 0, 0]","[0, 0, 0]",6.47,6.88,6.92,6.57,6.61,6.34,6.20,6.10,6.50,6.30,,,6.50,6.13,6.00,6.75,,,6.86,6.71,6.79,6.64,6.50,,5.50,5.60,5.70,5.80,,,6.67,6.50,6.58,7.08,6.83,,,,,,,,,,,,,,,,,,,
10583,"Dirección:HACIENDA COPAPAYO, CANTÓN TRES CEIBAS,, ARMENIA, SONSONATE.",SONSONATE,ARMENIA,http://,"COMPLEJO EDUCATIVO ""HACIENDA COPAPAYO, CANTON TRES CEIBAS """,Centro educativo oficial,,Matutino,,"('13.7525', '-89.4738889')",https://portal.siges.sv/pp/sede?sede=588,"[4, 0, 0]","[12, 18, 9]","[18, 16, 26]","[19, 30, 19]","[22, 20, 32]","[31, 25, 22]","[22, 34, 22]","[26, 21, 33]","[30, 27, 18]","[37, 46, 39]","[37, 33, 40]","[33, 33, 35]",7.24,8.24,8.29,7.42,7.44,,7.31,8.19,8.81,7.81,7.88,7.47,7.37,6.89,7.79,7.00,6.84,7.16,6.74,7.12,7.58,6.75,6.34,6.12,7.28,7.32,7.63,7.16,7.57,7.21,6.79,8.35,8.44,7.08,7.39,8.15,5.72,,,,5.51,4.82,6.15,,,,5.63,3.93,5.54,,6.43,,5.51,4.90
60160,"Dirección:COLONIA EL CHORIZO, CANTON LA PUERTA, J%2f ARMENIA, SONSONATE, ARMENIA, SONSONATE.",SONSONATE,ARMENIA,http://,"CENTRO ESCOLAR CASERÍO EL PROGRESO, CANTÓN LA PUERTA",Centro educativo oficial,,Matutino,,"('13.751389', '-89.514167')",https://portal.siges.sv/pp/sede?sede=5674,"[0, 0, 0]","[12, 0, 2]","[0, 8, 0]","[13, 0, 9]","[0, 9, 1]","[0, 0, 4]","[0, 0, 3]","[17, 3, 2]","[9, 0, 2]","[0, 0, 0]","[0, 0, 0]","[0, 0, 0]",7.39,7.33,8.11,7.28,7.67,7.44,6.00,7.50,9.00,6.50,,,5.63,6.63,8.25,5.75,6.50,,7.67,8.34,9.00,8.00,8.17,,7.50,7.00,6.75,6.50,,,8.25,9.75,7.50,8.50,7.00,,,,,,,,,,,,,,,,,,,
10792,"Dirección:CANTON EL CONACASTE, CONCEPCION QUEZALTEPEQUE, CHALATENANGO, CONCEPCION QUEZALTEPEQUE, CHALATENANGO.",CHALATENANGO,CONCEPCION QUEZALTEPEQUE,http://,CENTRO ESCOLAR CANTON EL CONACASTE,Centro educativo oficial,,Matutino,,"('14.0925', '-88.965')",https://portal.siges.sv/pp/sede?sede=797,"[3, 7, 1]","[6, 3, 7]","[6, 7, 4]","[8, 8, 9]","[3, 8, 7]","[7, 4, 8]","[3, 5, 4]","[7, 2, 5]","[3, 6, 2]","[0, 0, 0]","[0, 0, 0]","[0, 0, 0]",7.17,8.00,7.39,7.33,7.17,6.95,7.53,7.96,8.06,7.73,7.69,7.47,7.82,7.44,6.94,7.38,7.57,7.07,6.92,6.63,6.55,6.35,,,7.30,8.10,8.20,7.40,7.10,6.80,7.50,8.00,8.50,6.75,,,,,,,,,,,,,,,,,,,,
11969,"Dirección:CANTON EL PAJAL, SAN JUAN NONUALCO, LA PAZ, SAN JUAN NONUALCO, LA PAZ.",LA PAZ,SAN JUAN NONUALCO,http://,"CENTRO ESCOLAR ""CANTON EL PAJAL""",Centro educativo oficial,,Matutino,,"('13.5336111', '-88.8913889')",https://portal.siges.sv/pp/sede?sede=1778,"[4, 3, 3]","[13, 8, 9]","[13, 24, 15]","[25, 26, 27]","[18, 26, 24]","[19, 18, 25]","[17, 20, 18]","[17, 18, 22]","[21, 18, 19]","[22, 21, 22]","[23, 22, 22]","[23, 23, 21]",7.05,7.88,7.90,7.38,6.75,7.00,6.83,6.94,7.46,7.18,7.21,7.04,7.59,8.54,8.56,7.75,7.76,7.70,7.03,7.80,8.22,7.08,7.00,6.78,7.53,7.64,7.66,7.41,7.47,7.30,7.13,7.47,7.50,7.39,7.24,,6.66,8.47,6.68,6.89,7.09,6.91,6.92,7.88,6.47,6.41,6.34,6.80,6.62,,6.55,6.76,6.50,6.79
11735,"Dirección:BARRIO EL PROGRESO, AVENIDA PRINCIPAL N° 20, SOYAPANGO, SAN SALVADOR, SOYAPANGO, SAN SALVADOR.",SAN SALVADOR,SOYAPANGO,http://,"CENTRO ESCOLAR "" BARRIO EL PROGRESO """,Centro educativo oficial,22271790,Matutino,,"('13.7069444', '-89.155')",https://portal.siges.sv/pp/sede?sede=1567,"[24, 27, 30]","[35, 36, 35]","[34, 51, 41]","[41, 57, 72]","[38, 43, 55]","[38, 44, 43]","[32, 44, 51]","[51, 31, 54]","[29, 51, 36]","[37, 44, 55]","[36, 36, 42]","[31, 32, 36]",7.18,7.43,6.87,7.27,7.33,7.26,7.74,7.74,6.75,7.67,7.89,7.84,6.82,8.10,6.42,6.94,6.56,6.58,7.11,6.70,6.29,7.04,6.63,6.41,8.12,7.28,6.30,7.76,7.51,7.03,6.52,6.44,5.97,7.21,6.22,5.37,6.38,6.51,5.73,4.97,5.91,5.40,5.20,4.68,4.84,4.61,5.01,4.07,6.53,5.99,5.70,5.25,6.04,5.17
13111,"Dirección:8A. CALLE ORIENTE, Nº 5, BARRIO EL CALVARIO,, SESORI, SAN MIGUEL.",SAN MIGUEL,SESORI,http://www.institutodesesori.net/,INSTITUTO NACIONAL DE SESORI,Centro educativo oficial,26820607,Matutino,instsesori@msn.com,"('13.7166667', '-88.3608333')",https://portal.siges.sv/pp/sede?sede=2733,,,,,,,,,,,,,,,,,,,,,,,,,,,,,,,,,,,,,,,,,,,,,,,,,,,,,,,,,,,,,,,,,,
10977,"Dirección:CANTON EL CHILAMATE, SANTA RITA, CHALATENANGO, SANTA RITA, CHALATENANGO.",CHALATENANGO,SANTA RITA,http://,"CENTRO ESCOLAR ""CANTON EL CHILAMATE""",Centro educativo oficial,,Matutino,leydy.lorena.calderon@docente.edu.sv,"('14.1083333', '-89.0013889')",https://portal.siges.sv/pp/sede?sede=966,"[1, 3, 3]","[1, 2, 3]","[2, 1, 2]","[3, 2, 2]","[2, 3, 2]","[1, 2, 3]","[2, 1, 2]","[1, 2, 1]","[0, 1, 2]","[0, 0, 0]","[0, 0, 0]","[0, 0, 0]",7.00,8.00,7.50,7.75,,,6.50,7.25,7.75,6.00,6.75,,7.00,7.17,8.00,6.33,,,7.75,8.00,8.25,,,,8.50,8.00,9.00,,,,8.25,8.00,8.50,,,,,,,,,,,,,,,,,,,,,
11389,"Dirección:CALLE 5 COLONIA SANTA LUCIA, ILOPANGO, SAN SALVADOR, ILOPANGO, SAN SALVADOR.",SAN SALVADOR,ILOPANGO,http://,"COMPLEJO EDUCATIVO "" COLONIA SANTA LUCÍA """,Centro educativo oficial,2254-0093,Matutino,cesantalucia2016@gmail.com,"('13.6886111', '-89.1302778')",https://portal.siges.sv/pp/sede?sede=1294,"[24, 19, 14]","[18, 17, 18]","[23, 15, 22]","[34, 37, 25]","[38, 29, 34]","[37, 35, 32]","[35, 34, 30]","[39, 34, 31]","[30, 39, 31]","[30, 33, 37]","[32, 27, 38]","[34, 25, 31]",8.08,7.10,8.16,7.86,7.90,,6.82,5.89,7.03,6.82,6.76,6.32,7.21,7.45,7.13,7.33,7.05,,4.58,5.52,6.26,5.01,4.93,4.95,6.61,6.27,8.21,6.42,5.92,7.04,7.11,7.89,8.40,7.72,7.76,7.69,6.25,7.12,7.21,7.91,6.92,,8.19,6.79,8.39,8.64,9.15,7.54,7.69,6.68,8.72,8.12,8.89,7.97
86403,"Dirección:CASERIO SAN NICOLAS, CANTON LAS MARIAS, J%2f IZALCO, SONSONATE, IZALCO, SONSONATE.",SONSONATE,IZALCO,http://,"CENTRO ESCOLAR CASERÍO SAN NICOLÁS, CANTÓN LAS MARÍAS",Centro educativo oficial,,Matutino,,"('13.804444', '-89.576111')",https://portal.siges.sv/pp/sede?sede=7644,"[13, 5, 6]","[3, 7, 9]","[5, 5, 5]","[11, 6, 6]","[10, 12, 6]","[7, 10, 12]","[7, 7, 10]","[7, 7, 7]","[4, 7, 6]","[0, 0, 0]","[0, 0, 0]","[0, 0, 0]",6.17,6.33,6.25,6.67,6.42,,6.75,6.50,7.08,6.58,,,6.54,8.08,8.29,6.83,6.29,6.00,7.45,8.00,8.50,7.10,7.50,6.90,6.14,6.57,6.50,6.07,6.00,,6.92,7.17,7.58,7.08,6.83,6.67,,,,,,,,,,,,,,,,,,
11723,"Dirección:URBANIZACION PRADOS DE VENECIA III ETAPA, CALLE PRINCIPAL, SOYAPANGO, SAN SALVADOR, SOYAPANGO, SAN SALVADOR.",SAN SALVADOR,SOYAPANGO,http://,"COMPLEJO EDUCATIVO ""REPÚBLICA DE COREA""",Centro educativo oficial,22770722,Matutino,,"('13.712222', '-89.148333')",https://portal.siges.sv/pp/sede?sede=1557,"[25, 18, 12]","[31, 40, 41]","[37, 45, 46]","[45, 51, 57]","[40, 52, 54]","[35, 43, 58]","[46, 40, 53]","[50, 48, 45]","[50, 58, 48]","[51, 53, 59]","[53, 51, 61]","[50, 53, 56]",7.96,8.09,8.30,7.84,7.88,7.92,7.70,8.19,7.79,7.84,7.57,7.38,8.14,7.75,8.27,8.00,7.95,7.87,8.60,8.22,7.89,8.44,8.41,8.14,8.24,7.92,8.33,8.16,7.78,7.58,7.65,7.85,7.83,7.72,7.26,7.23,5.99,6.27,6.69,5.13,6.40,6.39,6.11,6.16,6.89,4.79,6.46,5.83,5.59,6.53,6.88,6.20,7.06,6.65
11306,"Dirección:AVENIDA FRANCISCO SALINAS No.8, AGUILARES, SAN SALVADOR, AGUILARES, SAN SALVADOR.",SAN SALVADOR,AGUILARES,http://,"CENTRO ESCOLAR ""ROQUE DALTON""",Centro educativo oficial,,Matutino,,"('13.9558333', '-89.1905556')",https://portal.siges.sv/pp/sede?sede=1218,"[5, 9, 0]","[9, 12, 8]","[11, 7, 13]","[30, 21, 20]","[28, 25, 18]","[19, 26, 28]","[19, 19, 25]","[21, 19, 17]","[14, 20, 14]","[23, 18, 21]","[24, 23, 16]","[16, 24, 20]",6.57,7.20,8.53,6.92,6.66,6.55,6.64,8.59,9.00,6.46,6.61,6.19,7.67,9.31,9.11,8.02,8.29,8.22,6.14,7.39,8.11,6.09,5.61,,6.47,7.36,7.69,6.88,6.83,5.40,6.24,6.74,7.13,6.00,6.50,5.85,6.42,8.09,5.83,5.02,6.65,5.39,7.12,7.00,7.18,5.63,6.97,5.51,6.58,8.13,6.78,5.89,6.83,5.86
11400,"Dirección:FINAL CALLE ARENAL, CANTON SAN BARTOLO, ILOPANGO, SAN SALVADOR, ILOPANGO, SAN SALVADOR.",SAN SALVADOR,ILOPANGO,http://,COMPLEJO EDUCATIVO CANTÓN SAN BARTOLO,Centro educativo oficial,22951925,Matutino,cesanbartolo@yahoo.com,"('13.7080556', '-89.0997222')",https://portal.siges.sv/pp/sede?sede=1304,"[18, 31, 10]","[44, 56, 49]","[66, 54, 56]","[77, 73, 62]","[67, 72, 69]","[70, 68, 79]","[81, 70, 65]","[77, 78, 72]","[79, 75, 74]","[86, 81, 74]","[102, 76, 68]","[79, 84, 70]",7.51,7.78,7.47,7.47,7.62,7.50,7.21,6.96,6.99,7.11,7.13,6.93,7.09,7.11,7.04,6.93,6.98,6.88,8.12,7.93,7.58,7.22,7.25,7.50,5.80,6.27,6.29,6.13,6.30,6.13,6.62,7.23,7.26,6.61,6.93,6.38,6.87,4.79,5.73,6.49,6.39,5.42,6.43,4.87,6.48,5.40,6.46,5.49,6.02,5.74,6.73,5.71,6.51,5.85
11515,"Dirección:RIVERA DEL LAGO DE ILOPANGO,CANTON EL SAUCE, SAN MARTIN, SAN SALVADOR, SAN MARTIN, SAN SALVADOR.",SAN SALVADOR,SAN MARTIN,http://,"CENTRO ESCOLAR "" CANTON EL SAUCE """,Centro educativo oficial,,Matutino,,"('13.7080556', '-89.0438889')",https://portal.siges.sv/pp/sede?sede=1394,,,,"[14, 16, 19]","[14, 11, 14]","[6, 12, 10]","[12, 8, 12]","[10, 11, 9]","[10, 9, 12]","[6, 9, 9]","[17, 5, 6]","[7, 17, 2]",6.80,6.66,6.65,6.77,7.29,7.22,6.47,6.36,6.56,6.43,6.70,6.53,7.47,7.35,8.07,7.32,7.43,7.08,6.75,6.28,6.66,6.70,7.01,,7.33,7.89,7.78,7.41,7.45,6.97,7.54,7.17,8.00,6.83,7.67,6.33,7.62,7.20,6.86,8.09,7.46,7.57,8.16,8.92,8.08,7.55,7.75,,9.00,8.75,8.28,8.00,8.25,
11516,"Dirección:KM. 19 1%2f2 CARRETERA PANAMERICANA C%2fLA FLOR, SAN MARTIN, SAN SALVADOR, SAN MARTIN, SAN SALVADOR.",SAN SALVADOR,SAN MARTIN,http://,"COMPLEJO EDUCATIVO ""CANTÓN LA FLOR""",Centro educativo oficial,25126687,Matutino,,"('13.735', '-89.0441667')",https://portal.siges.sv/pp/sede?sede=1395,"[0, 0, 0]","[26, 29, 11]","[29, 32, 28]","[39, 36, 35]","[38, 42, 32]","[46, 27, 41]","[32, 45, 28]","[34, 29, 43]","[50, 35, 30]","[50, 47, 38]","[40, 45, 48]","[32, 38, 46]",8.21,8.81,9.32,8.43,7.87,7.91,7.94,8.35,8.54,8.04,7.66,8.07,8.64,8.73,8.95,8.57,8.48,8.31,8.34,8.25,8.43,7.71,7.89,,8.53,8.74,9.09,8.51,8.18,8.06,6.87,7.95,7.96,6.71,7.00,6.08,7.85,8.88,7.90,8.16,7.73,7.62,7.10,8.14,7.04,6.74,6.98,7.22,7.83,9.08,7.90,7.84,7.37,7.24
11866,"Dirección:AVENIDA MORAZAN BARRIO EL CENTRO, SAN PEDRO PERULAPAN, SAN PEDRO PERULAPAN, CUSCATLAN.",CUSCATLAN,SAN PEDRO PERULAPAN,http://,"ESCUELA DE EDUCACION PARVULARIA "" SAN PEDRO PERULAPAN """,Centro educativo oficial,,Matutino,,"('13.7652778', '-89.0375')",https://portal.siges.sv/pp/sede?sede=1683,"[29, 25, 16]","[38, 41, 41]","[30, 38, 52]",,,,,,,,,,,,,,,,,,,,,,,,,,,,,,,,,,,,,,,,,,,,,,,,,,,,,,,,,,,,,,,
12208,"Dirección:CANTON IZCATAL J%2fSAN ISIDRO, SAN ISIDRO, CABAÑAS.",CABAÑAS,SAN ISIDRO,http://,"CENTRO ESCOLAR ""CANTON IZCATAL""",Centro educativo oficial,,Matutino,,"('13.8261111', '-88.7358333')",https://portal.siges.sv/pp/sede?sede=1987,,,,"[4, 4, 3]","[5, 4, 4]","[7, 4, 4]","[7, 6, 4]","[3, 6, 6]","[3, 3, 6]","[0, 0, 0]","[0, 0, 0]","[0, 0, 0]",7.33,8.33,7.00,,,,8.50,8.25,8.75,8.00,,,6.50,7.25,7.00,6.75,6.25,,6.50,6.75,6.00,,,,6.83,7.17,6.67,7.50,7.00,,7.50,6.17,6.50,7.17,6.67,,,,,,,,,,,,,,,,,,,
11673,"Dirección:ALAMEDA JUAN PABLO II N° 731, SAN SALVADOR, SAN SALVADOR, SAN SALVADOR.",SAN SALVADOR,SAN SALVADOR,http://,"CENTRO ESCOLAR ""REPUBLICA DE COLOMBIA""",Centro educativo oficial,503-2102-8731,Matutino,c.c.colombia11673@gmail.com,"('13.7025', '-89.1927778')",https://portal.siges.sv/pp/sede?sede=1517,"[3, 11, 3]","[11, 4, 12]","[9, 14, 8]","[20, 20, 22]","[22, 20, 22]","[29, 23, 22]","[28, 29, 24]","[24, 28, 30]","[34, 23, 31]","[28, 35, 29]","[27, 29, 39]","[40, 27, 34]",8.17,8.53,7.85,8.10,7.91,8.27,7.12,7.31,7.93,7.03,7.04,7.49,7.17,7.29,7.88,7.12,,,7.50,7.76,7.92,7.50,7.46,7.08,7.38,6.91,7.95,7.03,6.78,6.80,7.53,7.83,7.96,7.33,6.89,6.86,8.27,7.05,7.45,7.62,7.10,,7.82,8.04,7.49,7.10,7.74,6.85,8.08,8.00,7.37,7.33,7.86,6.67
11900,"Dirección:CANTON EL CAULOTE, SUCHITOTO, SUCHITOTO, CUSCATLAN.",CUSCATLAN,SUCHITOTO,http://,"CENTRO ESCOLAR "" CANTON EL CAULOTE """,Centro educativo oficial,,Matutino,marihelen0321@gmail.com,"('13.9241667', '-89.0236111')",https://portal.siges.sv/pp/sede?sede=1715,"[9, 2, 5]","[7, 11, 4]","[6, 4, 13]","[14, 6, 6]","[10, 12, 6]","[10, 8, 12]","[8, 11, 9]","[7, 7, 13]","[3, 7, 7]","[6, 3, 10]","[7, 6, 1]","[8, 4, 6]",5.25,5.92,6.42,5.33,5.42,5.58,7.67,7.83,8.25,7.58,7.58,7.33,7.17,5.83,8.42,7.21,6.17,7.13,6.72,6.92,7.03,7.95,6.88,7.17,7.04,6.37,7.50,5.88,5.91,6.88,6.71,6.86,7.42,6.00,6.29,,5.95,5.70,6.10,4.85,6.00,6.65,7.50,9.00,6.20,6.50,6.00,,7.80,8.00,8.50,6.64,6.96,7.24
12391,"Dirección:BARRIO SAN ANTONIO, CALLE PRINCIPAL, SAN SEBASTIAN, SAN VICENTE.",SAN VICENTE,SAN SEBASTIAN,http://,"ESCUELA DE EDUCACIÓN PARVULARIA ""DE SAN SEBASTIÁN""",Centro educativo oficial,23967644,Matutino,,"('13.7227778', '-88.8202778')",https://portal.siges.sv/pp/sede?sede=2135,"[26, 41, 36]","[27, 26, 40]","[43, 27, 24]",,,,,,,,,,,,,,,,,,,,,,,,,,,,,,,,,,,,,,,,,,,,,,,,,,,,,,,,,,,,,,,
11740,"Dirección:CALLE PRINCIPAL N° 20, CALLE A TONACATEPEQUE CONTIGUO A ANDA COLONIA LAS FLORES, TONACATEPEQUE, SAN, TONACATEPEQUE, SAN SALVADOR.",SAN SALVADOR,TONACATEPEQUE,http://,"CENTRO ESCOLAR "" PROFESORA MARIA INOCENCIA DE PAREDES """,Centro educativo oficial,2203-5088,Matutino,c.e.mariainocenciadeparedes@gmail.com,"('13.8161111', '-89.1436111')",https://portal.siges.sv/pp/sede?sede=1572,"[38, 46, 17]","[61, 50, 55]","[60, 62, 54]","[58, 67, 68]","[60, 56, 69]","[68, 64, 59]","[74, 68, 65]","[67, 73, 66]","[59, 65, 74]","[53, 60, 71]","[49, 48, 60]","[56, 47, 50]",8.24,7.46,8.13,8.21,8.38,8.43,6.82,7.08,7.65,6.89,6.78,6.95,7.82,6.89,8.20,7.83,7.91,7.35,7.62,7.06,8.70,8.48,8.45,7.77,7.00,6.59,8.02,7.78,8.01,7.71,7.92,6.82,8.08,7.88,8.06,7.33,6.79,7.80,6.83,7.29,6.42,6.35,6.05,8.21,6.30,5.58,6.27,5.39,7.12,8.18,6.01,5.57,6.01,6.34
72027,"Dirección:CANTON SAN ANTONIO, J%2fSAN CRISTOBAL, CUSCATLAN, SAN CRISTOBAL, CUSCATLAN.",CUSCATLAN,SAN CRISTOBAL,http://,CENTRO ESCOLAR CANTÓN SAN ANTONIO,Centro educativo oficial,,Matutino,,"('13.6861111', '-88.8897222')",https://portal.siges.sv/pp/sede?sede=6539,"[4, 1, 5]","[8, 5, 8]","[3, 11, 4]","[16, 6, 9]","[12, 10, 7]","[11, 10, 10]","[13, 4, 10]","[9, 10, 5]","[7, 5, 11]","[0, 0, 0]","[0, 0, 0]","[0, 0, 0]",4.72,5.00,5.67,4.61,4.89,,7.07,7.86,9.07,6.86,6.93,6.29,7.32,7.59,7.69,6.74,6.71,,6.78,7.88,7.64,7.12,6.60,6.49,6.00,6.20,6.90,5.90,5.30,,6.37,7.13,7.04,6.32,6.46,5.91,,,,,,,,,,,,,,,,,,
11594,"Dirección:CALLE PRINCIPAL SAN ANTONIO ABAD, SAN SALVADOR, SAN SALVADOR, SAN SALVADOR.",SAN SALVADOR,SAN SALVADOR,http://,"CENTRO ESCOLAR ""JUANA LOPEZ""",Centro educativo oficial,22624114,Matutino,,"('13.7172222', '-89.2288889')",https://portal.siges.sv/pp/sede?sede=1452,"[50, 56, 57]","[61, 62, 72]","[74, 67, 65]","[81, 93, 72]","[86, 83, 91]","[93, 81, 92]","[109, 97, 81]","[76, 94, 91]","[86, 73, 88]","[76, 74, 94]","[66, 54, 44]","[49, 54, 58]",7.33,6.02,7.88,7.28,7.66,7.58,6.79,6.23,7.52,6.74,6.80,6.82,7.29,5.99,7.65,7.66,7.42,7.20,7.43,6.24,7.37,6.87,6.81,7.15,7.07,5.49,7.37,7.06,6.14,6.26,6.91,6.31,7.47,6.73,6.09,6.25,6.35,5.68,4.77,6.38,5.36,4.39,6.10,6.45,5.26,6.75,5.91,4.53,6.64,6.82,5.68,6.95,6.37,5.59
10204,"Dirección:AVENIDA 14 DE ABRIL, Nº 1-4,, COATEPEQUE, SANTA ANA.",SANTA ANA,COATEPEQUE,http://,"CENTRO ESCOLAR ""COATEPEQUE""",Centro educativo oficial,24469216,Matutino,valem0321@hotmail.com,"('13.9269444', '-89.5036111')",https://portal.siges.sv/pp/sede?sede=209,,,,"[26, 37, 27]","[29, 26, 33]","[10, 27, 25]","[8, 14, 27]","[14, 12, 13]","[20, 19, 15]","[32, 49, 43]","[23, 30, 46]","[32, 25, 32]",7.59,7.60,7.63,7.62,7.20,7.23,7.59,8.22,8.20,7.80,7.63,7.79,8.10,7.87,8.29,7.96,7.79,,8.19,7.29,7.50,7.04,7.48,8.16,6.87,6.89,6.86,5.54,5.96,6.58,5.00,6.60,6.93,6.76,6.90,,6.87,7.97,7.70,7.56,7.35,7.34,5.59,7.12,6.83,6.91,6.82,6.49,6.69,7.78,7.02,7.49,7.16,7.11
10041,"Dirección:COLONIA SAN GENARO, 3 A CALLE PONIENTE, LOTE N° 24, SONSONATE., SONSONATE, SONSONATE.",SONSONATE,SONSONATE,http://,"CENTRO ESCOLAR ""COLONIA SAN GENARO""",Centro educativo oficial,,Matutino,,"('13.72810234', '-89.72894606')",https://portal.siges.sv/pp/sede?sede=46,"[10, 7, 7]","[2, 4, 8]","[3, 2, 3]","[2, 3, 4]","[2, 3, 4]","[2, 2, 7]","[2, 1, 3]","[1, 2, 1]","[1, 1, 2]","[0, 0, 0]","[0, 0, 0]","[0, 0, 0]",7.00,7.50,6.50,6.13,5.88,6.63,6.00,5.88,5.92,5.54,,,7.16,7.64,7.36,6.48,6.36,5.69,5.67,6.83,7.50,6.17,5.83,5.00,7.00,7.50,6.50,5.50,,,6.25,7.50,7.25,6.50,5.75,,,,,,,,,,,,,,,,,,,
68203,"Dirección:COMUNIDAD EL MILAGRO, FINCA EL PORVENIR, J%2fANTIGUO CUSCATLAN, LA LIBERTAD, ANTIGUO CUSCATLAN, LA LIBERTAD.",LA LIBERTAD,ANTIGUO CUSCATLAN,http://,"CENTRO ESCOLAR COMUNIDAD EL MILAGRO, FINCA EL PORVENIR",Centro educativo oficial,,Matutino,,"('13.6561111', '-89.2319444')",https://portal.siges.sv/pp/sede?sede=6425,"[6, 3, 3]","[6, 5, 3]","[5, 6, 5]","[8, 2, 6]","[2, 7, 2]","[5, 3, 7]","[6, 5, 6]","[6, 6, 6]","[2, 5, 6]",,,,6.33,6.92,7.50,5.92,5.75,,7.25,8.25,7.75,7.00,,,6.21,6.79,7.36,6.43,6.14,6.14,5.83,6.58,7.00,5.92,6.08,5.58,6.83,7.25,7.42,6.67,6.33,6.58,7.20,8.10,8.35,7.22,6.75,,,,,,,,,,,,,,,,,,,
13419,"Dirección:4a. CALLE PONIENTE Y 1a.. AVE. SUR COLONIA BELEN, LA UNION, LA UNION, LA UNIÓN.",LA UNIÓN,LA UNION,http://,"CENTRO ESCOLAR "" COLONIA BELEN """,Centro educativo oficial,,Matutino,cebelen13419@gmail.com,"('13.3377778', '-87.86')",https://portal.siges.sv/pp/sede?sede=2980,"[10, 6, 8]","[12, 12, 14]","[14, 15, 11]","[16, 20, 24]","[18, 14, 13]","[14, 20, 16]","[20, 16, 20]","[10, 20, 17]","[23, 14, 15]","[19, 23, 12]","[16, 20, 19]","[11, 17, 19]",7.34,8.26,8.41,7.59,7.19,7.04,4.75,5.04,5.01,4.79,4.71,,7.13,7.25,7.72,7.16,6.93,6.66,6.05,6.40,6.22,6.28,6.10,,7.32,6.57,6.70,7.67,7.51,7.10,7.74,7.56,7.77,7.92,7.76,7.52,7.14,7.52,7.32,6.57,6.22,,6.88,7.73,7.59,5.11,6.84,6.63,7.00,7.51,8.14,6.89,7.63,6.74
11228,"Dirección:FINAL AVENIDA BENJAMIN LOPEZ, CALLE A SANTA TECLA, J%2f SAN JUAN OPICO, LA LIBERTAD, SAN JUAN OPICO, LA LIBERTAD.",LA LIBERTAD,SAN JUAN OPICO,http://,"CENTRO ESCOLAR ""SANTOS NOVOA""",Centro educativo oficial,23313343,Matutino,escuelasantosnovoa@gmail.com,"('13.8725', '-89.3594444')",https://portal.siges.sv/pp/sede?sede=1166,,,,"[63, 77, 57]","[78, 63, 73]","[52, 92, 62]","[48, 66, 84]","[65, 52, 67]","[73, 76, 47]","[88, 118, 96]","[106, 93, 74]","[91, 111, 75]",6.82,7.34,8.06,6.80,6.83,6.82,6.71,7.52,8.06,6.68,6.81,6.66,7.78,8.34,8.31,7.78,7.80,7.68,7.98,7.76,7.74,7.99,7.90,7.70,7.29,8.14,7.46,7.38,7.26,6.81,6.89,7.62,7.32,6.60,6.88,6.55,7.48,7.30,7.38,7.03,7.38,7.34,6.84,7.34,7.48,6.64,7.26,7.40,7.01,7.45,7.26,6.72,7.32,7.60
10202,"Dirección:CASERIO EL PROGRESO, C%2f LA JOYA, COATEPEQUE, SANTA ANA.",SANTA ANA,COATEPEQUE,http://,"CENTRO ESCOLAR ""CASERIO EL PROGRESO, CANTON LA JOYA""",Centro educativo oficial,,Matutino,princesa800812@gmail.com,"('13.8552778', '-89.4625')",https://portal.siges.sv/pp/sede?sede=207,,,"[0, 0, 0]","[12, 6, 0]","[5, 8, 5]","[2, 5, 6]","[6, 2, 5]","[3, 6, 0]","[2, 2, 6]",,,,,,,,,,4.70,7.50,8.00,4.20,4.30,,7.58,8.00,8.25,7.25,7.42,7.33,6.90,7.40,8.40,6.60,6.30,6.00,,,,,,,6.25,7.42,8.33,6.50,6.42,5.50,,,,,,,,,,,,,,,,,,
11980,"Dirección:CANTON LOS HUEZO, SAN JUAN TALPA, LA PAZ, SAN JUAN TALPA, LA PAZ.",LA PAZ,SAN JUAN TALPA,http://,"CENTRO ESCOLAR ""CANTON LOS HUEZO""",Centro educativo oficial,,Matutino,mary_menjivar75@hotmail.com,"('13.4872222', '-89.0819444')",https://portal.siges.sv/pp/sede?sede=1788,"[5, 7, 4]","[9, 14, 13]","[22, 23, 16]","[42, 30, 25]","[26, 40, 30]","[31, 29, 41]","[32, 30, 27]","[34, 34, 30]","[32, 37, 32]","[34, 35, 34]","[37, 31, 28]","[26, 34, 26]",6.98,7.01,7.33,7.01,7.36,7.00,7.69,8.16,8.08,7.77,7.87,7.70,7.75,8.20,8.36,8.04,8.10,7.66,7.56,7.01,7.54,7.76,7.78,7.13,7.65,7.72,7.70,7.61,7.67,7.13,6.87,6.97,6.96,6.89,6.88,6.63,7.33,7.98,7.70,7.41,5.60,6.25,7.45,7.65,7.98,6.87,5.67,6.10,7.20,7.46,8.13,7.59,6.37,6.42
10039,"Dirección:CANTON LA DANTA, AHUACHAPAN, AHUACHAPAN.",AHUACHAPAN,AHUACHAPAN,http://,"CENTRO ESCOLAR ""CANTON LA DANTA""",Centro educativo oficial,,Matutino,,"('14.0308333', '-89.8727778')",https://portal.siges.sv/pp/sede?sede=44,"[3, 1, 7]","[9, 11, 19]","[20, 24, 21]","[22, 25, 25]","[20, 20, 26]","[22, 21, 19]","[27, 20, 19]","[16, 30, 20]","[14, 13, 29]","[15, 15, 12]","[14, 13, 14]","[10, 16, 11]",7.02,7.48,7.30,7.10,6.92,,6.84,7.41,7.69,6.75,7.08,6.62,6.63,6.92,7.11,6.50,7.29,6.68,6.85,8.18,8.15,6.28,6.97,6.78,6.13,7.13,7.08,6.38,6.33,6.53,6.57,6.47,7.68,6.23,6.38,6.12,6.29,7.42,6.42,6.54,6.63,6.04,6.86,7.82,6.36,6.71,6.57,6.25,7.46,8.14,7.09,6.59,7.68,
86289,"Dirección:CANTON SOLIMAN, J%2f COATEPEQUE, SANTA ANA, COATEPEQUE, SANTA ANA.",SANTA ANA,COATEPEQUE,http://,CENTRO ESCOLAR CANTÓN SOLIMAN,Centro educativo oficial,,Matutino,,"('13.9475', '-89.4233333')",https://portal.siges.sv/pp/sede?sede=7530,"[13, 5, 5]","[7, 8, 13]","[10, 4, 4]","[12, 10, 4]","[8, 12, 10]","[6, 9, 12]","[7, 5, 9]","[12, 6, 3]","[6, 11, 7]","[5, 8, 10]","[7, 2, 6]","[7, 5, 1]",6.50,6.75,6.25,6.13,,,6.55,7.10,8.20,6.50,6.65,6.60,6.67,7.42,8.17,7.17,6.96,6.33,6.00,6.39,6.28,6.33,6.17,,5.50,5.90,5.40,5.80,5.60,,6.43,7.21,7.71,6.71,6.93,6.08,6.21,6.81,6.01,4.81,5.16,4.76,6.32,6.69,6.07,5.92,5.69,5.63,6.00,6.50,7.83,7.50,7.67,
13576,"Dirección:CANTON PORTILLO, CASERIO LAS RANCHOS, SANTA ROSA DE LIMA, LA UNION, SANTA ROSA DE LIMA, LA UNIÓN.",LA UNIÓN,SANTA ROSA DE LIMA,http://,"CENTRO ESCOLAR ""CASERIO LOS RANCHOS, CANTON PORTILLO""",Centro educativo oficial,,Matutino,,"('13.6602778', '-87.9369444')",https://portal.siges.sv/pp/sede?sede=3122,"[0, 0, 0]","[4, 5, 2]","[13, 13, 18]","[17, 13, 12]","[12, 18, 13]","[16, 12, 18]","[19, 17, 12]","[12, 19, 18]","[14, 12, 19]","[15, 16, 12]","[15, 15, 15]","[18, 14, 14]",7.29,7.92,7.96,7.13,6.83,7.04,8.66,9.07,8.91,8.70,8.52,8.73,8.81,9.42,9.61,8.84,8.75,8.80,6.92,7.33,7.71,7.08,7.13,6.67,7.55,8.25,8.22,7.61,7.53,,6.42,6.27,6.47,6.00,6.00,6.20,7.32,8.33,7.04,6.96,7.71,,7.33,8.09,7.18,6.94,7.50,7.32,7.12,7.42,7.13,6.94,7.88,7.75
12625,"Dirección:CASERIO LA BARCA, CANTON SAN SIMON J%2fMERCEDES UMAÑA, MERCEDES UMAÑA, USULUTAN.",USULUTAN,MERCEDES UMAÑA,http://,"CENTRO ESCOLAR ""CASERIO LA BARCA, CANTON SAN SIMON""",Centro educativo oficial,,Matutino,,"('13.5911111', '-88.5719444')",https://portal.siges.sv/pp/sede?sede=2313,"[1, 2, 1]","[9, 9, 8]","[4, 12, 11]","[9, 9, 11]","[6, 8, 10]","[7, 6, 4]","[4, 8, 6]","[4, 3, 6]","[4, 3, 3]",,,,6.71,7.23,7.73,7.31,6.84,6.50,6.90,7.40,7.90,7.00,7.10,6.40,6.21,7.63,9.50,6.78,6.13,5.72,7.17,8.34,9.50,7.42,6.83,6.42,6.47,9.00,9.50,6.83,6.50,6.03,7.50,9.00,9.50,8.00,7.00,,,,,,,,,,,,,,,,,,,
